{"type":"FeatureCollection","name":"web_3d_water","features":[{"type":"Feature","properties":{"water":"lake","natural":"water","name":"Bindu Sagara","web_layer_source":"F:/datasets/layers/all_water.geojson"},"geometry":{"type":"Polygon","coordinates":[[[85.8353276,20.2440836],[85.8354467,20.244061],[85.8356234,20.243934],[85.835992,20.2436739],[85.8363024,20.2435199],[85.8366442,20.2433503],[85.8365026,20.2425489],[85.8362771,20.2418088],[85.8361819,20.2415709],[85.8359854,20.2413451],[85.8355791,20.2409367],[85.8349796,20.2400127],[85.834084,20.2405961],[85.8337946,20.2408598],[85.8337563,20.2411794],[85.8338195,20.2415448],[85.8340124,20.2423983],[85.8343326,20.2431078],[85.8344275,20.2431949],[85.8346044,20.2433541],[85.8347791,20.243503],[85.8349003,20.2436816],[85.8349178,20.2437998],[85.8349697,20.2439109],[85.8350726,20.2439925],[85.8352003,20.2440654],[85.8353276,20.2440836]],[[85.8351706,20.2418557],[85.8352672,20.2420706],[85.8350323,20.2421636],[85.8349356,20.2419487],[85.8351706,20.2418557]]]}},{"type":"Feature","properties":{"water":"lake","natural":"water","name":"Ekamra Kanan Lake","web_layer_source":"F:/datasets/layers/all_water.geojson"},"geometry":{"type":"Polygon","coordinates":[[[85.8028848,20.3007356],[85.8034276,20.3006302],[85.8036726,20.3006028],[85.8037411,20.3006137],[85.803904,20.3006166],[85.8040177,20.3006709],[85.8040933,20.3007634],[85.8041687,20.3009908],[85.8042198,20.3011171],[85.8042856,20.3011928],[85.8044016,20.3012332],[85.8045669,20.3012307],[85.8047139,20.3012119],[85.8048947,20.3011698],[85.8049503,20.3011185],[85.8049579,20.3010715],[85.804951,20.3010178],[85.8049167,20.3009608],[85.8048717,20.3009327],[85.8048074,20.3009215],[85.8047229,20.3009311],[85.8046485,20.300961],[85.8046059,20.3009583],[85.8045685,20.3009356],[85.8045096,20.3008639],[85.8044775,20.3007978],[85.8044721,20.3007359],[85.8044842,20.3006521],[85.8045492,20.3005297],[85.8046331,20.3004299],[85.8048755,20.3001495],[85.8050277,20.2997677],[85.8050312,20.2994889],[85.8049536,20.2991119],[85.8048264,20.2988744],[85.8045862,20.2987279],[85.8044207,20.2986441],[85.804111,20.2985893],[85.8039199,20.2986059],[85.8036049,20.2986274],[85.803412,20.2986316],[85.8032837,20.2986635],[85.8030638,20.2987525],[85.8029715,20.2988136],[85.8028936,20.2988674],[85.8028157,20.2988877],[85.8026457,20.2988381],[85.8024758,20.2987668],[85.8021892,20.2987552],[85.8019423,20.2987515],[85.8017804,20.2987146],[85.8016547,20.2986274],[85.8014954,20.2985262],[85.8012292,20.2985329],[85.8007506,20.2985406],[85.8001143,20.2985664],[85.7998288,20.2986187],[85.7996114,20.2986799],[85.7994093,20.2987017],[85.7991354,20.2986644],[85.7988561,20.2986064],[85.798623,20.2985423],[85.7984084,20.2985103],[85.7981656,20.2985424],[85.7979088,20.2985936],[85.7976637,20.2986673],[85.7974571,20.2987962],[85.7971856,20.2990183],[85.7968117,20.2993308],[85.7965174,20.2996009],[85.7963329,20.2997798],[85.7962499,20.2998868],[85.7962271,20.2999753],[85.7962578,20.3000721],[85.7963291,20.3001468],[85.7964255,20.300206],[85.7965765,20.3002006],[85.7966846,20.3000928],[85.7969255,20.2997717],[85.7972561,20.2995148],[85.7975802,20.2992987],[85.7978543,20.2992345],[85.7982295,20.2992155],[85.7985038,20.2992834],[85.7989565,20.2995337],[85.7992999,20.2997282],[85.7997674,20.2997907],[85.8000566,20.2998509],[85.8003122,20.300037],[85.8006556,20.3000434],[85.8010237,20.3000556],[85.8011883,20.3001336],[85.8014185,20.3002824],[85.8015829,20.3004551],[85.8015603,20.3006339],[85.8014319,20.3009024],[85.801226,20.3011754],[85.8009259,20.3014564],[85.8007142,20.3017587],[85.8005098,20.3021179],[85.8004625,20.3022794],[85.8005315,20.3023755],[85.8006467,20.3024235],[85.8007903,20.3024157],[85.8013297,20.3018144],[85.8019722,20.3012647],[85.8024893,20.3009094],[85.8026469,20.3008358],[85.8028848,20.3007356]],[[85.8003039,20.2993414],[85.8002348,20.2994577],[85.8001515,20.2994615],[85.8000214,20.2993472],[85.8000071,20.2992175],[85.80006,20.2991317],[85.8000071,20.2990783],[85.8000254,20.2989678],[85.8001677,20.2989068],[85.8002307,20.2989964],[85.8003039,20.2993414]],[[85.8012167,20.299397],[85.8011104,20.2994288],[85.8010318,20.2992048],[85.8011304,20.2991702],[85.8012675,20.2992597],[85.8012167,20.299397]],[[85.801983,20.3006129],[85.8019306,20.3006505],[85.8018598,20.3006418],[85.8017458,20.3004135],[85.8015825,20.3001968],[85.8012959,20.2999801],[85.8012928,20.2999078],[85.801376,20.2998558],[85.8015116,20.2998789],[85.8016164,20.2998154],[85.8016564,20.2997402],[85.8017704,20.2997056],[85.8019707,20.2997229],[85.8020046,20.2997865],[85.801983,20.2998443],[85.8018382,20.2999743],[85.8018659,20.3001823],[85.8018782,20.3003673],[85.8019707,20.3004453],[85.801983,20.3006129]],[[85.8023589,20.3006678],[85.8022603,20.3006505],[85.8021432,20.3005985],[85.8020385,20.3004858],[85.8020385,20.3003528],[85.8021586,20.300139],[85.8022357,20.3000263],[85.8024359,20.300035],[85.8025561,20.3001708],[85.8025499,20.3003991],[85.8024513,20.3005985],[85.8023589,20.3006678]]]}},{"type":"Feature","properties":{"water":"canal","natural":"water","name":null,"web_layer_source":"F:/datasets/layers/all_water.geojson"},"geometry":{"type":"Polygon","coordinates":[[[85.8824898,20.317243],[85.8797432,20.3208751],[85.8785309,20.3225754],[85.877812,20.3240846],[85.8774258,20.3256541],[85.8773507,20.3268614],[85.8774258,20.3280686],[85.8792712,20.3485105],[85.8794857,20.3495969],[85.8799578,20.3508845],[85.8818004,20.3552706],[85.8828325,20.3575076],[85.8838602,20.3597645],[85.8850554,20.3619832],[85.8862634,20.364158],[85.8871938,20.3662863],[85.8874431,20.3675617],[85.8874343,20.3688532],[85.8873225,20.369517],[85.8871512,20.3701808],[85.885632,20.3741234],[85.8853379,20.3748608],[85.8852201,20.3750063],[85.8851429,20.3751836],[85.8848499,20.3760821],[85.8842532,20.3775947],[85.8838658,20.378615],[85.8836646,20.3798446],[85.8835332,20.3813984],[85.8833244,20.3835686],[85.8831592,20.3857583],[85.8830498,20.3869512],[85.882817,20.3881214],[85.8825381,20.3891498],[85.8820204,20.390183],[85.8815028,20.3910127],[85.8807303,20.3917996],[85.8775116,20.394535],[85.8763529,20.3957417],[85.8746363,20.3979541],[85.8742501,20.3983563],[85.8736063,20.3986781],[85.873145,20.3987686],[85.8729304,20.3989698],[85.872748,20.3990804],[85.8728124,20.3992714],[85.8733059,20.399201],[85.8735849,20.3991809],[85.8737887,20.3992111],[85.8738853,20.3990904],[85.8747114,20.3984468],[85.8751298,20.3978334],[85.8765771,20.3959119],[85.877716,20.3947258],[85.8809906,20.3921188],[85.8818192,20.3911195],[85.8824861,20.3900777],[85.8831055,20.3888751],[85.8834189,20.3876998],[85.8840694,20.3806763],[85.8842296,20.3792027],[85.8844815,20.3781632],[85.8854887,20.3757508],[85.8855975,20.3756325],[85.8857814,20.3752169],[85.8857688,20.3750325],[85.8861007,20.3742253],[85.8876518,20.3702875],[85.8878578,20.3689137],[85.8878897,20.3675647],[85.8877891,20.3669101],[85.8876288,20.3662396],[85.8867029,20.3640542],[85.8842956,20.3596613],[85.8802268,20.3507871],[85.8797652,20.349528],[85.8795571,20.3484744],[85.8779423,20.3283263],[85.8778442,20.3271028],[85.8778979,20.3257144],[85.8782948,20.3241852],[85.8789815,20.3227766],[85.8801938,20.3211166],[85.8826293,20.3179071],[85.8933643,20.3034544],[85.8938164,20.3027047],[85.8940543,20.3021155],[85.8941831,20.3015138],[85.8942738,20.3008812],[85.8943447,20.3002454],[85.8940101,20.2988905],[85.8938757,20.2986058],[85.8936786,20.2983366],[85.893103,20.2980296],[85.892981,20.2981626],[85.8936576,20.2988133],[85.8939487,20.2996525],[85.8939066,20.3005015],[85.8937819,20.3013505],[85.8933579,20.3025252],[85.8928988,20.3033278],[85.8824898,20.317243]]]}},{"type":"Feature","properties":{"water":"river","natural":"water","name":null,"web_layer_source":"F:/datasets/layers/all_water.geojson"},"geometry":{"type":"Polygon","coordinates":[[[85.8591423,20.2099108],[85.8599255,20.2065278],[85.85852,20.2063667],[85.8574042,20.2065882],[85.8553765,20.2069104],[85.8539603,20.2074743],[85.8519647,20.2085918],[85.8495078,20.2096188],[85.8467076,20.2101323],[85.8441863,20.2105954],[85.8421585,20.2107867],[85.841268,20.2110888],[85.8382854,20.2110082],[85.8370516,20.2107666],[85.8359573,20.210233],[85.834938,20.2095181],[85.8341763,20.2086925],[85.8339402,20.2080582],[85.8337257,20.2062862],[85.8338651,20.2058432],[85.8344552,20.2049974],[85.8355925,20.2041214],[85.8390043,20.201715],[85.8397338,20.2008289],[85.8404419,20.1998522],[85.8404741,20.1991374],[85.8401737,20.1979492],[85.839884,20.1970631],[85.8387468,20.1956132],[85.8374915,20.1946062],[85.8361478,20.1937928],[85.8356286,20.1933902],[85.8349488,20.1925219],[85.8338222,20.1909913],[85.8335218,20.1901757],[85.8336613,20.1882322],[85.8342407,20.1860975],[85.8346376,20.1845165],[85.8343587,20.1822709],[85.8340475,20.1813344],[85.8333287,20.1802166],[85.8328459,20.179562],[85.828419,20.171856],[85.828118,20.1702349],[85.8281188,20.1671172],[85.8282144,20.1654789],[85.8276606,20.1627632],[85.8268425,20.1592079],[85.8255782,20.1549516],[85.8250807,20.1529964],[85.8242059,20.1515914],[85.8234653,20.1494221],[85.8232967,20.1460712],[85.8218133,20.1433653],[85.8199803,20.1394498],[85.8179657,20.1348627],[85.8159245,20.1318104],[85.8141886,20.1295623],[85.8129392,20.1290037],[85.8098458,20.1279047],[85.8060202,20.1279149],[85.7977714,20.1285817],[85.7953801,20.128399],[85.7933808,20.1289396],[85.7889205,20.1315895],[85.7872144,20.1336135],[85.7855747,20.1369915],[85.7845221,20.1376146],[85.7823296,20.1383863],[85.7792899,20.1397183],[85.7760702,20.1404257],[85.7710729,20.1391919],[85.7693199,20.1381974],[85.7670185,20.1376327],[85.7657719,20.1374566],[85.7642823,20.1376608],[85.7589718,20.1386665],[85.7557615,20.1375067],[85.7518342,20.1333525],[85.7497091,20.1306871],[85.746176,20.1294182],[85.7432727,20.1286955],[85.7428819,20.128973],[85.742491,20.1292504],[85.7435409,20.1303022],[85.7470455,20.1311962],[85.7499205,20.1330471],[85.7541614,20.1372495],[85.7565254,20.1388463],[85.7601997,20.1394319],[85.7627441,20.1388634],[85.7654624,20.1382312],[85.7671985,20.1383561],[85.7689679,20.1389017],[85.7718053,20.1406995],[85.7746527,20.1415464],[85.7762746,20.1413312],[85.7792315,20.1406278],[85.7832868,20.1392506],[85.7845433,20.1387478],[85.7861444,20.137773],[85.7870312,20.1362507],[85.7896904,20.1325712],[85.7926816,20.1305436],[85.7949616,20.1295821],[85.7985396,20.1295643],[85.8020288,20.1296798],[85.8045461,20.1292127],[85.8079435,20.1288789],[85.8104734,20.1296089],[85.8127083,20.1312457],[85.8160813,20.1349738],[85.8194055,20.1408082],[85.8206638,20.1445128],[85.8219989,20.1489255],[85.8223538,20.1521344],[85.8235298,20.1544047],[85.8245285,20.1571779],[85.8254292,20.1600048],[85.8262708,20.1627849],[85.8264309,20.1648816],[85.8268908,20.1689046],[85.8273196,20.1716167],[85.8277812,20.1746718],[85.8292196,20.1768229],[85.8307967,20.1783838],[85.8324704,20.1805892],[85.8332107,20.1819184],[85.833436,20.1829154],[85.8335862,20.1842345],[85.8332965,20.1865305],[85.832524,20.1890982],[85.8325884,20.1908806],[85.832921,20.191807],[85.8333502,20.1924615],[85.8339832,20.1932469],[85.8365903,20.1949889],[85.8377597,20.1959857],[85.8386717,20.1972645],[85.8392296,20.1984225],[85.839251,20.1991172],[85.8385,20.2003758],[85.8373413,20.2015539],[85.8352492,20.2030541],[85.8332214,20.2043731],[85.832803,20.2048967],[85.8324919,20.2062761],[85.8323309,20.2073534],[85.8326313,20.2092966],[85.8332107,20.2102028],[85.8340475,20.210968],[85.8345411,20.2115821],[85.8358071,20.212297],[85.8376202,20.2125587],[85.839648,20.2129313],[85.8401737,20.2129212],[85.8418796,20.2125789],[85.8461818,20.2112801],[85.8482096,20.2108774],[85.8497653,20.2107263],[85.8508703,20.2103538],[85.8523831,20.2095785],[85.8539281,20.2091255],[85.855591,20.2088436],[85.8568678,20.2088134],[85.857769,20.2091456],[85.8591423,20.2099108]]]}},{"type":"Feature","properties":{"water":"river","natural":"water","name":null,"web_layer_source":"F:/datasets/layers/all_water.geojson"},"geometry":{"type":"Polygon","coordinates":[[[85.8766947,20.1889472],[85.8754179,20.189783],[85.8732614,20.1905483],[85.8713088,20.1911826],[85.8702252,20.1918976],[85.8691308,20.1923809],[85.8675751,20.1931563],[85.8662448,20.1945055],[85.8648715,20.1962375],[85.8635089,20.1975464],[85.8626613,20.1986842],[85.8625433,20.2000234],[85.8625862,20.2012518],[85.8622536,20.2027823],[85.8616314,20.2039805],[85.8609662,20.2053397],[85.8609662,20.2055914],[85.8607301,20.2057223],[85.8603654,20.2062459],[85.8599255,20.2065278],[85.8591423,20.2099108],[85.8598611,20.2106055],[85.8605799,20.2117332],[85.8658585,20.2086221],[85.8654294,20.2072225],[85.8652577,20.2061351],[85.8653221,20.2045846],[85.8649359,20.2010504],[85.8666417,20.198644],[85.8675537,20.197476],[85.8687017,20.1964388],[85.8697424,20.1973249],[85.8703968,20.1972444],[85.8708689,20.1969322],[85.8708153,20.196751],[85.8707294,20.19661],[85.8705578,20.1964892],[85.8703325,20.1966302],[85.8701179,20.1969524],[85.8698389,20.1969322],[85.8690343,20.1963079],[85.8689163,20.1959555],[85.8690557,20.1956031],[85.8699891,20.1946969],[85.8707723,20.1943444],[85.8719525,20.1934281],[85.872961,20.1926326],[85.8740876,20.1916458],[85.8765874,20.1903267],[85.878186,20.1895514],[85.8806941,20.1883501],[85.881901,20.1877345],[85.883038,20.1871763],[85.8840875,20.1867987],[85.8847609,20.1862652],[85.8851457,20.185945],[85.8857492,20.185313],[85.8872884,20.184213],[85.8885916,20.1831294],[85.8875945,20.1823168],[85.8865888,20.1831951],[85.8857842,20.1837779],[85.885032,20.1843443],[85.8840875,20.1848615],[85.883038,20.1853458],[85.8820497,20.1857152],[85.8813063,20.1860025],[85.8807728,20.1862405],[85.8800469,20.1865196],[85.8791898,20.1870696],[85.8783852,20.187636],[85.8778167,20.1881449],[85.8773969,20.1884404],[85.8766947,20.1889472]]]}},{"type":"Feature","properties":{"water":"canal","natural":"water","name":null,"web_layer_source":"F:/datasets/layers/all_water.geojson"},"geometry":{"type":"Polygon","coordinates":[[[85.8886037,20.1790484],[85.8848593,20.1812034],[85.8842982,20.1814384],[85.8841619,20.1814955],[85.8812437,20.1833081],[85.8804639,20.1841589],[85.8795068,20.1853177],[85.8785323,20.1864762],[85.8782672,20.1867179],[85.8778306,20.1869735],[85.8773005,20.1872067],[85.8761752,20.1875033],[85.8748484,20.1878114],[85.8741658,20.1878978],[85.8730983,20.1879198],[85.8726585,20.1879206],[85.8706316,20.1881145],[85.869974,20.1883112],[85.8677083,20.1894453],[85.8669529,20.1900271],[85.8666525,20.1903066],[85.866395,20.1908403],[85.8662448,20.191374],[85.8661804,20.1919076],[85.8662233,20.192834],[85.8662617,20.1928907],[85.8662984,20.1929448],[85.8665559,20.1930153],[85.8665988,20.1929649],[85.8665023,20.192834],[85.866513,20.1917163],[85.8665237,20.1911927],[85.8667919,20.1906288],[85.8670494,20.1902965],[85.8674357,20.189934],[85.8702466,20.1884336],[85.870944,20.1882625],[85.871974,20.1881517],[85.8739803,20.1881517],[85.8744523,20.1881114],[85.8775208,20.1874065],[85.8781323,20.1871246],[85.8786473,20.1866714],[85.8808789,20.1840633],[85.8815977,20.1834189],[85.882338,20.1828751],[85.8849237,20.1813646],[85.8887002,20.1791995],[85.8894512,20.1787161],[85.8903096,20.1779507],[85.8909318,20.1771955],[85.8907494,20.1770746],[85.8900842,20.1778702],[85.8893225,20.1785953],[85.8886037,20.1790484]]]}},{"type":"Feature","properties":{"water":"river","natural":"water","name":null,"web_layer_source":"F:/datasets/layers/all_water.geojson"},"geometry":{"type":"Polygon","coordinates":[[[85.8748922,20.2435051],[85.8749459,20.244713],[85.8754179,20.2461122],[85.8768985,20.2483065],[85.8790765,20.252665],[85.8806,20.2565804],[85.8812008,20.2573051],[85.8815334,20.2581405],[85.8818445,20.2587545],[85.8822629,20.2600126],[85.8828637,20.2627],[85.8832305,20.2638834],[85.8876186,20.2635614],[85.8880458,20.2604454],[85.8867047,20.2584827],[85.8852885,20.256671],[85.8849451,20.2555135],[85.8847198,20.2536816],[85.8839795,20.2514672],[85.8831534,20.2492024],[85.8818016,20.2468067],[85.8807609,20.2448137],[85.8800957,20.2436057],[85.8790121,20.2423575],[85.8781216,20.2406463],[85.8764264,20.238029],[85.8752999,20.2364586],[85.8740661,20.235311],[85.8717272,20.2330561],[85.8708474,20.2316669],[85.8699462,20.2297743],[85.8693347,20.22763],[85.8687446,20.2268649],[85.8681009,20.225838],[85.8662555,20.2237038],[85.8656761,20.2227373],[85.8652148,20.2208245],[85.8650968,20.2193244],[85.8652148,20.2175021],[85.8657834,20.2138273],[85.8666203,20.2118439],[85.866749,20.2106055],[85.8663521,20.2093772],[85.8658585,20.2086221],[85.8605799,20.2117332],[85.8609018,20.2124279],[85.8612344,20.2140387],[85.8621034,20.2177639],[85.8626506,20.2195559],[85.8632622,20.2209755],[85.8635626,20.2227171],[85.8641741,20.2242172],[85.8650002,20.2273179],[85.8660195,20.229583],[85.8672211,20.231083],[85.8683369,20.2329353],[85.8695707,20.2352406],[85.8712015,20.2371532],[85.872489,20.2391766],[85.8746025,20.2426394],[85.8748922,20.2435051]]]}},{"type":"Feature","properties":{"water":"pond","natural":"water","name":"Papanashini Pond","web_layer_source":"F:/datasets/layers/all_water.geojson"},"geometry":{"type":"Polygon","coordinates":[[[85.83283,20.2396747],[85.8332536,20.2395576],[85.8331532,20.2392379],[85.8327296,20.239355],[85.83283,20.2396747]]]}},{"type":"Feature","properties":{"water":"pond","natural":"water","name":"Devi Padahara Pond","web_layer_source":"F:/datasets/layers/all_water.geojson"},"geometry":{"type":"Polygon","coordinates":[[[85.8350459,20.2388415],[85.835373,20.2387419],[85.8357022,20.2386417],[85.8355254,20.2381422],[85.8348733,20.2383535],[85.8350459,20.2388415]]]}},{"type":"Feature","properties":{"water":"river","natural":"water","name":null,"web_layer_source":"F:/datasets/layers/all_water.geojson"},"geometry":{"type":"Polygon","coordinates":[[[85.8687097,20.3956368],[85.8671709,20.3936835],[85.8657566,20.3918573],[85.8643424,20.3906264],[85.8630435,20.388949],[85.8627405,20.3873934],[85.8621055,20.3851614],[85.8618313,20.3837815],[85.861788,20.3817388],[85.8619323,20.3800208],[85.8625529,20.3787492],[85.8631013,20.3778698],[85.8637795,20.3772205],[85.8669036,20.375133],[85.8677117,20.3734825],[85.868289,20.3705062],[85.8690394,20.3675569],[85.8703671,20.364824],[85.8725318,20.3621452],[85.8739461,20.3603051],[85.8741481,20.3581133],[85.8739172,20.3563003],[85.8732245,20.3547579],[85.8726473,20.3528636],[85.8722432,20.3517],[85.871868,20.3492645],[85.8706094,20.3470378],[85.8702466,20.3464435],[85.8690683,20.3450699],[85.8676829,20.3438251],[85.8660377,20.3420119],[85.8646411,20.3402223],[85.8645052,20.3400942],[85.8643228,20.3399541],[85.8614449,20.3366672],[85.8609143,20.3353659],[85.8607918,20.3333374],[85.8611796,20.3320934],[85.8614245,20.3310983],[85.861547,20.3297395],[85.8613429,20.3283807],[85.8611184,20.3268114],[85.8615062,20.3256249],[85.8622613,20.3244191],[85.8639756,20.32329],[85.8655471,20.3215292],[85.8681595,20.3191369],[85.8698738,20.3172038],[85.8720372,20.3152707],[85.8733842,20.3134333],[85.8744455,20.3124189],[85.8757516,20.3111174],[85.8775272,20.3084378],[85.8787722,20.3073468],[85.8791191,20.3058921],[85.8800171,20.3036718],[85.8802008,20.3023319],[85.8805682,20.3005709],[85.8806498,20.2975083],[85.8808335,20.2952304],[85.8810172,20.2939096],[85.8817927,20.2916317],[85.8823846,20.2895068],[85.8824866,20.288454],[85.8825274,20.286712],[85.8826499,20.2847211],[85.8826703,20.2838979],[85.8829764,20.2813518],[85.8835887,20.279112],[85.8842826,20.277255],[85.8846296,20.2760107],[85.8854051,20.2744791],[85.8852418,20.2735027],[85.8849153,20.2708033],[85.8844255,20.269712],[85.8842214,20.2681613],[85.8836703,20.2667445],[85.8835071,20.265366],[85.8832305,20.2638834],[85.8876186,20.2635614],[85.8873644,20.2646385],[85.8876297,20.2659596],[85.8881603,20.2680656],[85.8881807,20.26931],[85.8878338,20.2707459],[85.8878338,20.2720094],[85.8880991,20.2732347],[85.8881807,20.2741345],[85.8884256,20.2749769],[85.8882624,20.2759724],[85.8882215,20.2770827],[85.8879766,20.2787674],[85.887997,20.2800309],[85.8877521,20.2812944],[85.8869154,20.2831705],[85.8860786,20.2847977],[85.8853235,20.2863865],[85.8848132,20.2876883],[85.884169,20.2903711],[85.883866,20.2922526],[85.8835629,20.2940528],[85.8828702,20.2957718],[85.8826393,20.2966652],[85.8827403,20.297545],[85.8829568,20.2987767],[85.8830001,20.2998189],[85.8832166,20.3006039],[85.883866,20.3031078],[85.8839416,20.3033518],[85.8843278,20.3045967],[85.8845442,20.3056659],[85.883866,20.3073442],[85.8829279,20.3086164],[85.8820043,20.3098345],[85.8809508,20.310836],[85.8787573,20.3121488],[85.8774873,20.313421],[85.8758421,20.3146796],[85.8746732,20.3166555],[85.8737063,20.3175081],[85.872292,20.3192404],[85.8712956,20.3213943],[85.8706797,20.3227409],[85.8698098,20.3240717],[85.8696222,20.3255874],[85.8681358,20.3283887],[85.8678616,20.330838],[85.8678327,20.3337474],[85.8677462,20.335263],[85.8687131,20.3370492],[85.870416,20.3394985],[85.8726384,20.3421641],[85.873865,20.344275],[85.8749185,20.3467106],[85.8759432,20.3477389],[85.8769389,20.3487538],[85.8782666,20.3505804],[85.8785841,20.3529482],[85.8790315,20.3544366],[85.8789593,20.3555054],[85.879017,20.3567096],[85.8791902,20.3583603],[85.8790748,20.3590232],[85.8783676,20.3599297],[85.8778192,20.3609851],[85.8770832,20.3622433],[85.876405,20.3639886],[85.8757123,20.3657474],[85.8744423,20.3677497],[85.8739228,20.3688456],[85.873663,20.369522],[85.8727683,20.370699],[85.8716282,20.3721331],[85.8712097,20.3732289],[85.8708468,20.3742005],[85.8709285,20.3750997],[85.8712346,20.3759989],[85.871255,20.3764581],[85.8722959,20.3759989],[85.8730102,20.3754441],[85.8735,20.3746214],[85.8740715,20.3738944],[85.8747858,20.3732247],[85.8758879,20.372402],[85.8766634,20.3717133],[85.8776634,20.3711202],[85.8781737,20.371235],[85.8778471,20.3718855],[85.8766838,20.3731099],[85.8757654,20.3740666],[85.8754185,20.3749275],[85.8756021,20.375578],[85.876296,20.3760946],[85.8761124,20.376879],[85.8750511,20.3779503],[85.8745817,20.3787156],[85.8743368,20.3796339],[85.8733571,20.3808775],[85.8713571,20.3813749],[85.8705407,20.3808775],[85.8699284,20.3797296],[85.8690713,20.3792704],[85.8684794,20.3804757],[85.8677855,20.3815471],[85.8673569,20.3830393],[85.868112,20.3840724],[85.8690304,20.3856411],[85.8692753,20.3868655],[85.8696835,20.3880898],[85.8705407,20.3899263],[85.8713367,20.3912272],[85.8722755,20.3920115],[85.8726632,20.3931785],[85.8720102,20.3943262],[85.8711675,20.3951324],[85.8687097,20.3956368]]]}},{"type":"Feature","properties":{"water":"pond","natural":"water","name":null,"web_layer_source":"F:/datasets/layers/all_water.geojson"},"geometry":{"type":"Polygon","coordinates":[[[85.8517274,20.2394283],[85.8517623,20.2391842],[85.8519822,20.2392118],[85.8519473,20.2394559],[85.8517274,20.2394283]]]}},{"type":"Feature","properties":{"water":"pond","natural":"water","name":null,"web_layer_source":"F:/datasets/layers/all_water.geojson"},"geometry":{"type":"Polygon","coordinates":[[[85.8508185,20.2686561],[85.8507662,20.2683819],[85.8507676,20.268319],[85.8507797,20.2682787],[85.8508118,20.268246],[85.8508615,20.2682158],[85.850962,20.2681957],[85.8512209,20.2681655],[85.8514515,20.2681479],[85.8514703,20.2681894],[85.8515387,20.2685643],[85.8515387,20.2685945],[85.851528,20.2686146],[85.8515012,20.2686234],[85.8508641,20.2686649],[85.85084,20.2686649],[85.8508185,20.2686561]]]}},{"type":"Feature","properties":{"water":"pond","natural":"water","name":"Jharapokhari","web_layer_source":"F:/datasets/layers/all_water.geojson"},"geometry":{"type":"Polygon","coordinates":[[[85.8079558,20.2337214],[85.8079391,20.2336072],[85.8078727,20.2331552],[85.8084225,20.2330973],[85.8084869,20.2336812],[85.8083895,20.2336886],[85.8079558,20.2337214]]]}},{"type":"Feature","properties":{"water":"pond","natural":"water","name":"Nakhi pokhari(pond)","web_layer_source":"F:/datasets/layers/all_water.geojson"},"geometry":{"type":"Polygon","coordinates":[[[85.8423401,20.2171048],[85.8426821,20.216886],[85.8432511,20.2176695],[85.8424942,20.2178143],[85.8423401,20.2171048]]]}},{"type":"Feature","properties":{"water":"pond","natural":"water","name":"Talapadeswari Pokhari","web_layer_source":"F:/datasets/layers/all_water.geojson"},"geometry":{"type":"Polygon","coordinates":[[[85.8415307,20.3037611],[85.8415611,20.3029841],[85.8415853,20.3026711],[85.8424502,20.3026881],[85.8423834,20.3033057],[85.8423045,20.3038095],[85.8415307,20.3037611]]]}},{"type":"Feature","properties":{"water":"pond","natural":"water","name":null,"web_layer_source":"F:/datasets/layers/all_water.geojson"},"geometry":{"type":"Polygon","coordinates":[[[85.8231788,20.3139537],[85.8231,20.3136982],[85.8231075,20.313388],[85.8231803,20.3133345],[85.8234789,20.313338],[85.8241405,20.3133329],[85.8243534,20.3133416],[85.8244073,20.3134171],[85.8244052,20.3135918],[85.8243729,20.313758],[85.8242942,20.3139411],[85.8242484,20.3139834],[85.823709,20.3139759],[85.8231788,20.3139537]]]}},{"type":"Feature","properties":{"water":"pond","natural":"water","name":"Mausima Temple Pond","web_layer_source":"F:/datasets/layers/all_water.geojson"},"geometry":{"type":"Polygon","coordinates":[[[85.8352847,20.2534477],[85.8348405,20.253579],[85.8349892,20.2540218],[85.835481,20.2538765],[85.8354521,20.2537904],[85.8356146,20.2537424],[85.8355179,20.2534542],[85.8353077,20.2535163],[85.8352847,20.2534477]]]}},{"type":"Feature","properties":{"water":"pond","natural":"water","name":null,"web_layer_source":"F:/datasets/layers/all_water.geojson"},"geometry":{"type":"Polygon","coordinates":[[[85.825341,20.2555308],[85.8252197,20.255248],[85.8257971,20.25503],[85.8259185,20.2553129],[85.825341,20.2555308]]]}},{"type":"Feature","properties":{"water":"pond","natural":"water","name":null,"web_layer_source":"F:/datasets/layers/all_water.geojson"},"geometry":{"type":"Polygon","coordinates":[[[85.8363104,20.2391566],[85.8362541,20.2391034],[85.8363287,20.2390337],[85.8363817,20.2391164],[85.8363104,20.2391566]]]}},{"type":"Feature","properties":{"water":"pond","natural":"water","name":null,"web_layer_source":"F:/datasets/layers/all_water.geojson"},"geometry":{"type":"Polygon","coordinates":[[[85.8001838,20.2673092],[85.7999019,20.267039],[85.8001299,20.2668323],[85.8004303,20.2671127],[85.8001838,20.2673092]]]}},{"type":"Feature","properties":{"water":"pond","natural":"water","name":"Lily Pond","web_layer_source":"F:/datasets/layers/all_water.geojson"},"geometry":{"type":"Polygon","coordinates":[[[85.8055399,20.2993367],[85.8057718,20.2993135],[85.8059169,20.2993035],[85.8059469,20.2996089],[85.805885,20.2999259],[85.8057852,20.3000735],[85.8057566,20.3002558],[85.8057244,20.3003388],[85.805683,20.3004355],[85.8054427,20.3003127],[85.8054782,20.3002448],[85.805509,20.3000295],[85.8055208,20.2997594],[85.8054705,20.2995716],[85.8055051,20.2995399],[85.8055074,20.2995059],[85.8054712,20.299461],[85.8055026,20.2993799],[85.8055399,20.2993367]]]}},{"type":"Feature","properties":{"water":"pond","natural":"water","name":null,"web_layer_source":"F:/datasets/layers/all_water.geojson"},"geometry":{"type":"Polygon","coordinates":[[[85.8063407,20.303831],[85.8062788,20.3038128],[85.8061868,20.3037564],[85.8061514,20.3036833],[85.8061638,20.3036269],[85.8062186,20.3035937],[85.8062629,20.3035937],[85.8062894,20.3036252],[85.8062912,20.3037049],[85.8063089,20.3037298],[85.806362,20.303753],[85.8063938,20.3037763],[85.8063938,20.3038161],[85.8063407,20.303831]]]}},{"type":"Feature","properties":{"water":"pond","natural":"water","name":null,"web_layer_source":"F:/datasets/layers/all_water.geojson"},"geometry":{"type":"Polygon","coordinates":[[[85.801163,20.3032411],[85.8012108,20.3032586],[85.8012377,20.303217],[85.801184,20.3030955],[85.8011349,20.3030812],[85.8011174,20.3031239],[85.801163,20.3032411]]]}},{"type":"Feature","properties":{"water":"pond","natural":"water","name":null,"web_layer_source":"F:/datasets/layers/all_water.geojson"},"geometry":{"type":"Polygon","coordinates":[[[85.8409711,20.2349039],[85.8407394,20.2343317],[85.8401296,20.2344347],[85.8396783,20.234656],[85.8397881,20.2352625],[85.8409711,20.2349039]]]}},{"type":"Feature","properties":{"water":"pond","natural":"water","name":null,"web_layer_source":"F:/datasets/layers/all_water.geojson"},"geometry":{"type":"Polygon","coordinates":[[[85.8661909,20.2966786],[85.8661089,20.2969663],[85.8662016,20.2973544],[85.8669257,20.297157],[85.8667759,20.296605],[85.8661909,20.2966786]]]}},{"type":"Feature","properties":{"water":"pond","natural":"water","name":null,"web_layer_source":"F:/datasets/layers/all_water.geojson"},"geometry":{"type":"Polygon","coordinates":[[[85.8736021,20.3081363],[85.8743022,20.3082604],[85.8741378,20.3085627],[85.8735274,20.3085186],[85.8736021,20.3081363]]]}},{"type":"Feature","properties":{"water":"pond","natural":"water","name":null,"web_layer_source":"F:/datasets/layers/all_water.geojson"},"geometry":{"type":"Polygon","coordinates":[[[85.8741208,20.3076578],[85.8740802,20.3077279],[85.8740418,20.3079101],[85.8740204,20.3080322],[85.8740503,20.3080962],[85.8743043,20.3081343],[85.8743364,20.3080342],[85.8743897,20.3077019],[85.8742339,20.3076658],[85.8741208,20.3076578]]]}},{"type":"Feature","properties":{"water":"pond","natural":"water","name":null,"web_layer_source":"F:/datasets/layers/all_water.geojson"},"geometry":{"type":"Polygon","coordinates":[[[85.8745253,20.3238415],[85.8746888,20.3237672],[85.874906,20.3236858],[85.875095,20.3236642],[85.875164,20.3236834],[85.8751282,20.3238367],[85.8751027,20.3241242],[85.8750976,20.3242679],[85.8750516,20.3243925],[85.8749647,20.3244668],[85.8748447,20.3244716],[85.8747041,20.3244452],[85.8745279,20.3243853],[85.8744819,20.3242032],[85.8744512,20.3240595],[85.8744742,20.3239565],[85.8745253,20.3238415]]]}},{"type":"Feature","properties":{"water":"pond","natural":"water","name":null,"web_layer_source":"F:/datasets/layers/all_water.geojson"},"geometry":{"type":"Polygon","coordinates":[[[85.8715592,20.3298403],[85.872111,20.3298858],[85.8719756,20.3304248],[85.8713344,20.3303122],[85.8715592,20.3298403]]]}},{"type":"Feature","properties":{"water":"pond","natural":"water","name":null,"web_layer_source":"F:/datasets/layers/all_water.geojson"},"geometry":{"type":"Polygon","coordinates":[[[85.8694694,20.3347106],[85.8698884,20.3346387],[85.8699344,20.334895],[85.8695077,20.3349813],[85.8694694,20.3347106]]]}},{"type":"Feature","properties":{"water":"pond","natural":"water","name":null,"web_layer_source":"F:/datasets/layers/all_water.geojson"},"geometry":{"type":"Polygon","coordinates":[[[85.878198,20.3489064],[85.8783818,20.3488119],[85.8785636,20.349075],[85.8783679,20.3491807],[85.878198,20.3489064]]]}},{"type":"Feature","properties":{"water":"pond","natural":"water","name":null,"web_layer_source":"F:/datasets/layers/all_water.geojson"},"geometry":{"type":"Polygon","coordinates":[[[85.8803403,20.3561089],[85.8804115,20.3560718],[85.8804609,20.3560848],[85.8805281,20.3561478],[85.880534,20.3562108],[85.8805142,20.3562905],[85.8804411,20.3562942],[85.88037,20.3562812],[85.8803067,20.3562349],[85.8803087,20.3561941],[85.8803146,20.3561459],[85.8803403,20.3561089]]]}},{"type":"Feature","properties":{"water":"pond","natural":"water","name":null,"web_layer_source":"F:/datasets/layers/all_water.geojson"},"geometry":{"type":"Polygon","coordinates":[[[85.866132,20.2684996],[85.8666415,20.2683661],[85.8666804,20.2684743],[85.8667584,20.2687315],[85.8666954,20.2687484],[85.866631,20.2687568],[85.8665875,20.2687849],[85.8665501,20.2687934],[85.8664901,20.2687723],[85.8664407,20.2687877],[85.8663388,20.2688496],[85.8662953,20.2688369],[85.8662324,20.268754],[85.866201,20.2686683],[85.8661755,20.2686008],[85.866132,20.2684996]]]}},{"type":"Feature","properties":{"water":"pond","natural":"water","name":null,"web_layer_source":"F:/datasets/layers/all_water.geojson"},"geometry":{"type":"Polygon","coordinates":[[[85.8440746,20.2632942],[85.8441193,20.2632508],[85.8441455,20.263245],[85.8441948,20.2632501],[85.844184,20.2632176],[85.8441054,20.2632111],[85.8441185,20.263193],[85.8441555,20.26318],[85.8441848,20.263159],[85.8442395,20.2631424],[85.8442649,20.2631576],[85.8442603,20.2631171],[85.8442811,20.2630933],[85.8443704,20.2630795],[85.8443465,20.2630571],[85.8444051,20.263042],[85.8444351,20.2630203],[85.8444952,20.2630044],[85.8444898,20.2629791],[85.844573,20.262891],[85.8446084,20.2627688],[85.8445499,20.2627486],[85.8445237,20.2627276],[85.8444536,20.2628093],[85.8444143,20.2628447],[85.8443381,20.2628881],[85.8442888,20.2629495],[85.8442071,20.2629892],[85.8441393,20.263034],[85.8440739,20.2630962],[85.8439884,20.2631569],[85.843976,20.2631778],[85.8439737,20.2631995],[85.8440746,20.2632942]]]}}]}