{"type":"FeatureCollection","name":"web_3d_green_spaces","features":[{"type":"Feature","properties":{"leisure":"park","landuse":null,"name":"Jayadev Batika","web_layer_source":"F:/datasets/layers/all_leisure.geojson"},"geometry":{"type":"Point","coordinates":[85.7808502,20.2648191]}},{"type":"Feature","properties":{"leisure":"park","landuse":null,"name":"CKL's Garden and Park","web_layer_source":"F:/datasets/layers/all_leisure.geojson"},"geometry":{"type":"Point","coordinates":[85.8609903,20.3111559]}},{"type":"Feature","properties":{"leisure":"park","landuse":null,"name":"Children Park","web_layer_source":"F:/datasets/layers/all_leisure.geojson"},"geometry":{"type":"Point","coordinates":[85.8611911,20.3109882]}},{"type":"Feature","properties":{"leisure":"park","landuse":null,"name":"Refreshment Park","web_layer_source":"F:/datasets/layers/all_leisure.geojson"},"geometry":{"type":"Point","coordinates":[85.8208605,20.3342376]}},{"type":"Feature","properties":{"leisure":"park","landuse":null,"name":"Anant Vihar Park (Phase-3)","web_layer_source":"F:/datasets/layers/all_leisure.geojson"},"geometry":{"type":"Point","coordinates":[85.8061647,20.2421891]}},{"type":"Feature","properties":{"leisure":"park","landuse":null,"name":"Ekamra Kshetra","web_layer_source":"F:/datasets/layers/all_leisure.geojson"},"geometry":{"type":"Point","coordinates":[85.8317369,20.2557024]}},{"type":"Feature","properties":{"leisure":"park","landuse":null,"name":null,"web_layer_source":"F:/datasets/layers/all_leisure.geojson"},"geometry":{"type":"Point","coordinates":[85.7995229,20.3015187]}},{"type":"Feature","properties":{"leisure":"park","landuse":null,"name":"Forest Park (Biju Patnaik Park)","web_layer_source":"F:/datasets/layers/all_leisure.geojson"},"geometry":{"type":"Polygon","coordinates":[[[85.82605,20.25621],[85.8258058,20.2563055],[85.8257515,20.2562261],[85.8232015,20.2576555],[85.8249647,20.2599353],[85.827348,20.2582521],[85.82605,20.25621]]]}},{"type":"Feature","properties":{"leisure":"park","landuse":null,"name":"Indira Gandhi Park","web_layer_source":"F:/datasets/layers/all_leisure.geojson"},"geometry":{"type":"Polygon","coordinates":[[[85.83133,20.26844],[85.8319009,20.2680682],[85.8323964,20.2677454],[85.8330704,20.2688295],[85.8336614,20.2699105],[85.8342771,20.2712313],[85.8331359,20.2717133],[85.8322756,20.2701063],[85.83133,20.26844]]]}},{"type":"Feature","properties":{"leisure":"park","landuse":null,"name":null,"web_layer_source":"F:/datasets/layers/all_leisure.geojson"},"geometry":{"type":"Polygon","coordinates":[[[85.8391202,20.2877567],[85.8391533,20.2875383],[85.8412019,20.2877961],[85.8411612,20.2880225],[85.8391202,20.2877567]]]}},{"type":"Feature","properties":{"leisure":"park","landuse":null,"name":"Small Park","web_layer_source":"F:/datasets/layers/all_leisure.geojson"},"geometry":{"type":"Polygon","coordinates":[[[85.84447,20.25282],[85.84442,20.25422],[85.84513,20.25362],[85.84447,20.25282]]]}},{"type":"Feature","properties":{"leisure":"park","landuse":null,"name":null,"web_layer_source":"F:/datasets/layers/all_leisure.geojson"},"geometry":{"type":"Polygon","coordinates":[[[85.8212736,20.2706346],[85.822105,20.2704583],[85.8219825,20.2704264],[85.8218938,20.2703887],[85.8218103,20.2703207],[85.8217329,20.2702498],[85.8216317,20.2701382],[85.821169,20.270236],[85.8212736,20.2706346]]]}},{"type":"Feature","properties":{"leisure":"park","landuse":null,"name":"Square Park","web_layer_source":"F:/datasets/layers/all_leisure.geojson"},"geometry":{"type":"Polygon","coordinates":[[[85.7955499,20.2835631],[85.7952577,20.2840247],[85.7956727,20.2842485],[85.7959585,20.2837843],[85.7955499,20.2835631]]]}},{"type":"Feature","properties":{"leisure":"park","landuse":null,"name":"Small Park","web_layer_source":"F:/datasets/layers/all_leisure.geojson"},"geometry":{"type":"Polygon","coordinates":[[[85.8299801,20.2553578],[85.8301179,20.2556658],[85.8304847,20.255418],[85.8304214,20.2553654],[85.8303279,20.2553249],[85.8302142,20.2553109],[85.8300931,20.2553173],[85.8300285,20.2553337],[85.8299801,20.2553578]]]}},{"type":"Feature","properties":{"leisure":"park","landuse":null,"name":"Jai Prakash Narayan Park","web_layer_source":"F:/datasets/layers/all_leisure.geojson"},"geometry":{"type":"Polygon","coordinates":[[[85.841444,20.2687413],[85.841515,20.2687453],[85.841579,20.2687317],[85.8422682,20.2683461],[85.8420691,20.2680299],[85.8419802,20.2680155],[85.8414573,20.2683213],[85.841366,20.2685143],[85.841338,20.2686181],[85.8413509,20.2686782],[85.8413907,20.2687151],[85.841444,20.2687413]]]}},{"type":"Feature","properties":{"leisure":"park","landuse":null,"name":"Nehru Park","web_layer_source":"F:/datasets/layers/all_leisure.geojson"},"geometry":{"type":"Polygon","coordinates":[[[85.8412643,20.2681208],[85.8413234,20.2681147],[85.8413688,20.2681028],[85.8414465,20.2680828],[85.8418099,20.2678835],[85.8418569,20.2678476],[85.8418711,20.2678094],[85.8418638,20.2677626],[85.8416646,20.2674579],[85.8410627,20.2678409],[85.8410237,20.2678708],[85.8410057,20.2679051],[85.8410024,20.2679431],[85.8410098,20.2679905],[85.8410317,20.2680328],[85.8410706,20.2680671],[85.8411089,20.2680939],[85.8411645,20.2681169],[85.8412643,20.2681208]]]}},{"type":"Feature","properties":{"leisure":"park","landuse":null,"name":null,"web_layer_source":"F:/datasets/layers/all_leisure.geojson"},"geometry":{"type":"Polygon","coordinates":[[[85.8421916,20.2679231],[85.8420958,20.2677838],[85.8430017,20.2673042],[85.8431024,20.2674516],[85.8421916,20.2679231]]]}},{"type":"Feature","properties":{"leisure":"park","landuse":null,"name":null,"web_layer_source":"F:/datasets/layers/all_leisure.geojson"},"geometry":{"type":"Polygon","coordinates":[[[85.7769513,20.2731465],[85.7769545,20.27317],[85.7769661,20.2731912],[85.7769763,20.2732014],[85.776998,20.2732137],[85.7770254,20.2732182],[85.7770502,20.2732137],[85.7770696,20.2732033],[85.7770863,20.2731855],[85.7770964,20.2731585],[85.7770952,20.2731348],[85.7770857,20.2731133],[85.7770687,20.2730957],[85.7770462,20.2730847],[85.77703,20.2730817],[85.7770048,20.2730839],[85.7769809,20.2730948],[85.7769634,20.273112],[85.7769533,20.2731338],[85.7769513,20.2731465]]]}},{"type":"Feature","properties":{"leisure":"park","landuse":null,"name":null,"web_layer_source":"F:/datasets/layers/all_leisure.geojson"},"geometry":{"type":"Polygon","coordinates":[[[85.840103,20.2429795],[85.840044,20.2427656],[85.8398133,20.2428034],[85.8392474,20.2429795],[85.8392953,20.2431243],[85.840103,20.2429795]]]}},{"type":"Feature","properties":{"leisure":"park","landuse":null,"name":null,"web_layer_source":"F:/datasets/layers/all_leisure.geojson"},"geometry":{"type":"Polygon","coordinates":[[[85.8430494,20.2446901],[85.843683,20.244732],[85.8437991,20.2435508],[85.8433914,20.2435508],[85.8433861,20.2433419],[85.8436838,20.2433343],[85.8436631,20.2430719],[85.8431404,20.2431706],[85.8431527,20.2432765],[85.8431496,20.2435194],[85.8431389,20.2438265],[85.8430937,20.2442252],[85.8430494,20.2446901]]]}},{"type":"Feature","properties":{"leisure":"park","landuse":null,"name":null,"web_layer_source":"F:/datasets/layers/all_leisure.geojson"},"geometry":{"type":"Polygon","coordinates":[[[85.8402984,20.2425802],[85.8404489,20.2425391],[85.8404189,20.2424425],[85.8402684,20.2424836],[85.8402984,20.2425802]]]}},{"type":"Feature","properties":{"leisure":"park","landuse":null,"name":null,"web_layer_source":"F:/datasets/layers/all_leisure.geojson"},"geometry":{"type":"Polygon","coordinates":[[[85.8405684,20.242313],[85.8408782,20.2422799],[85.8408728,20.2418773],[85.8408138,20.2418773],[85.8407977,20.2417087],[85.8406877,20.2417766],[85.840508,20.2418068],[85.8405161,20.2420786],[85.8405684,20.242313]]]}},{"type":"Feature","properties":{"leisure":"park","landuse":null,"name":null,"web_layer_source":"F:/datasets/layers/all_leisure.geojson"},"geometry":{"type":"Polygon","coordinates":[[[85.8405617,20.2427706],[85.8404464,20.2427983],[85.8404732,20.2429141],[85.8405429,20.242894],[85.8405559,20.2429356],[85.8406073,20.2429242],[85.8405617,20.2427706]]]}},{"type":"Feature","properties":{"leisure":"park","landuse":null,"name":null,"web_layer_source":"F:/datasets/layers/all_leisure.geojson"},"geometry":{"type":"Polygon","coordinates":[[[85.8437482,20.244731],[85.8440056,20.2447335],[85.8441102,20.2436867],[85.8442355,20.2430674],[85.8442553,20.2429088],[85.8437205,20.2429311],[85.8437538,20.2430609],[85.8436631,20.2430719],[85.8436838,20.2433343],[85.8438796,20.2433318],[85.8437482,20.244731]]]}},{"type":"Feature","properties":{"leisure":"park","landuse":null,"name":null,"web_layer_source":"F:/datasets/layers/all_leisure.geojson"},"geometry":{"type":"Polygon","coordinates":[[[85.8407709,20.2429166],[85.8408755,20.2428889],[85.8408701,20.2423453],[85.8406126,20.2423957],[85.8407709,20.2429166]]]}},{"type":"Feature","properties":{"leisure":"park","landuse":null,"name":null,"web_layer_source":"F:/datasets/layers/all_leisure.geojson"},"geometry":{"type":"Polygon","coordinates":[[[85.8399743,20.2425567],[85.8400195,20.2427368],[85.8400521,20.2427354],[85.8400919,20.2428727],[85.840272,20.2428159],[85.8402023,20.2426423],[85.8402371,20.2425844],[85.8402103,20.2425064],[85.8399743,20.2425567]]]}},{"type":"Feature","properties":{"leisure":"park","landuse":null,"name":"Jayadev Vatika","web_layer_source":"F:/datasets/layers/all_leisure.geojson"},"geometry":{"type":"Polygon","coordinates":[[[85.781277,20.2650863],[85.7789202,20.2643366],[85.7783095,20.2640516],[85.7782295,20.263899],[85.7782353,20.2636659],[85.7789057,20.2599221],[85.7792848,20.2576124],[85.7794582,20.2566312],[85.7836791,20.2570022],[85.7840971,20.2570245],[85.7843372,20.2580134],[85.7847561,20.2578693],[85.7855682,20.2604087],[85.7847643,20.2606345],[85.7843559,20.2607275],[85.7834439,20.2621741],[85.7848601,20.2630727],[85.7847582,20.2641546],[85.7846332,20.2655348],[85.7827386,20.2653092],[85.7818776,20.2652213],[85.781277,20.2650863]]]}},{"type":"Feature","properties":{"leisure":"park","landuse":null,"name":"Biju Pattnaik Energy Park","web_layer_source":"F:/datasets/layers/all_leisure.geojson"},"geometry":{"type":"Polygon","coordinates":[[[85.7835273,20.2539111],[85.7836855,20.2543238],[85.7836317,20.2543465],[85.7838143,20.2548497],[85.784121,20.2547623],[85.7845733,20.2546333],[85.7843748,20.254203],[85.7842916,20.253886],[85.7840205,20.2538949],[85.7835273,20.2539111]]]}},{"type":"Feature","properties":{"leisure":"park","landuse":null,"name":null,"web_layer_source":"F:/datasets/layers/all_leisure.geojson"},"geometry":{"type":"Polygon","coordinates":[[[85.843611,20.2707489],[85.8434333,20.2704],[85.8438732,20.2702239],[85.8440395,20.2705736],[85.843611,20.2707489]]]}},{"type":"Feature","properties":{"leisure":"park","landuse":null,"name":null,"web_layer_source":"F:/datasets/layers/all_leisure.geojson"},"geometry":{"type":"Polygon","coordinates":[[[85.844145,20.2707326],[85.8440366,20.2705215],[85.8442299,20.270432],[85.8443352,20.2706504],[85.844145,20.2707326]]]}},{"type":"Feature","properties":{"leisure":"park","landuse":null,"name":"Kharavela Park","web_layer_source":"F:/datasets/layers/all_leisure.geojson"},"geometry":{"type":"Polygon","coordinates":[[[85.7852115,20.2585963],[85.7857346,20.2584454],[85.78563,20.2576678],[85.7855495,20.2566563],[85.7854465,20.2562022],[85.7849932,20.2553894],[85.7845733,20.2546333],[85.784121,20.2547623],[85.7848886,20.2568137],[85.7845465,20.2569154],[85.7847818,20.257652],[85.7848081,20.2577113],[85.7850957,20.258359],[85.7852115,20.2585963]]]}},{"type":"Feature","properties":{"leisure":"garden","landuse":"grass","name":null,"web_layer_source":"F:/datasets/layers/all_leisure.geojson"},"geometry":{"type":"Polygon","coordinates":[[[85.8292105,20.2674773],[85.829369,20.2677124],[85.8294979,20.2676359],[85.8293394,20.2674008],[85.8292105,20.2674773]]]}},{"type":"Feature","properties":{"leisure":"park","landuse":null,"name":null,"web_layer_source":"F:/datasets/layers/all_leisure.geojson"},"geometry":{"type":"Polygon","coordinates":[[[85.7770309,20.2582207],[85.7770299,20.2589744],[85.7773839,20.2589747],[85.7773849,20.2582211],[85.7770309,20.2582207]]]}},{"type":"Feature","properties":{"leisure":"park","landuse":null,"name":"N-4 BDA Community Park","web_layer_source":"F:/datasets/layers/all_leisure.geojson"},"geometry":{"type":"Polygon","coordinates":[[[85.8108293,20.2934229],[85.8106791,20.2933675],[85.810655,20.2933449],[85.8106469,20.2933273],[85.810832,20.2924318],[85.8112477,20.2926582],[85.8108293,20.2934229]]]}},{"type":"Feature","properties":{"leisure":"park","landuse":"grass","name":"Brahmeswar Temple","web_layer_source":"F:/datasets/layers/all_leisure.geojson"},"geometry":{"type":"Polygon","coordinates":[[[85.8516526,20.2403195],[85.8516875,20.240322],[85.8516687,20.2401056],[85.8520361,20.2400477],[85.852476,20.2399848],[85.8524304,20.2396728],[85.8521434,20.2396904],[85.8522105,20.2390587],[85.8512905,20.2389958],[85.8512731,20.2393201],[85.8514313,20.239992],[85.8515694,20.2401962],[85.8516526,20.2403195]]]}},{"type":"Feature","properties":{"leisure":"park","landuse":"grass","name":"Bhaskaraswar temple","web_layer_source":"F:/datasets/layers/all_leisure.geojson"},"geometry":{"type":"Polygon","coordinates":[[[85.852457,20.2452269],[85.8521075,20.2440602],[85.8523443,20.2440377],[85.853734,20.2439585],[85.853746,20.2451207],[85.852457,20.2452269]]]}},{"type":"Feature","properties":{"leisure":"pitch","landuse":"grass","name":"Raj Bhavan Square","web_layer_source":"F:/datasets/layers/all_leisure.geojson"},"geometry":{"type":"Polygon","coordinates":[[[85.8218722,20.2700518],[85.821864,20.2700945],[85.821864,20.2701284],[85.8218699,20.270158],[85.8218909,20.2701865],[85.8219259,20.2702215],[85.8219714,20.2702522],[85.8219995,20.2702675],[85.8220462,20.2702774],[85.8220823,20.2702807],[85.8221431,20.2702785],[85.8221898,20.2702686],[85.822233,20.2702489],[85.8222691,20.2702226],[85.8222995,20.270192],[85.8223135,20.2701668],[85.8223228,20.2701339],[85.8223252,20.2700978],[85.8223228,20.2700671],[85.8223123,20.2700408],[85.8222902,20.2700135],[85.8222598,20.2699861],[85.8222294,20.2699653],[85.8221851,20.2699466],[85.8221349,20.2699379],[85.822087,20.2699335],[85.8220497,20.2699368],[85.8220053,20.2699445],[85.8219586,20.2699609],[85.8219247,20.2699784],[85.8219014,20.2699992],[85.8218839,20.2700233],[85.8218722,20.2700518]]]}},{"type":"Feature","properties":{"leisure":"pitch","landuse":"grass","name":null,"web_layer_source":"F:/datasets/layers/all_leisure.geojson"},"geometry":{"type":"Polygon","coordinates":[[[85.8209234,20.2702795],[85.8207524,20.2703166],[85.8207263,20.2703248],[85.8207156,20.2703368],[85.8207122,20.2703512],[85.8207437,20.2704745],[85.8207518,20.270484],[85.8207645,20.2704928],[85.8207826,20.2704946],[85.8210095,20.2704499],[85.8210166,20.2704433],[85.8210228,20.2704342],[85.8210219,20.2704217],[85.8209883,20.2702922],[85.8209847,20.2702806],[85.8209751,20.2702731],[85.82096,20.2702723],[85.8209234,20.2702795]]]}},{"type":"Feature","properties":{"leisure":"pitch","landuse":"grass","name":null,"web_layer_source":"F:/datasets/layers/all_leisure.geojson"},"geometry":{"type":"Polygon","coordinates":[[[85.8195095,20.2705873],[85.819501,20.2705967],[85.8194987,20.2706047],[85.8194971,20.270622],[85.8195295,20.270747],[85.8195395,20.2707579],[85.819548,20.2707622],[85.8195642,20.2707629],[85.8206272,20.2705292],[85.8206412,20.270522],[85.8206523,20.2705127],[85.8206587,20.2705051],[85.8206604,20.2704952],[85.8206336,20.2703813],[85.8206277,20.2703726],[85.820619,20.2703627],[85.8206073,20.2703572],[85.8205851,20.2703572],[85.8195095,20.2705873]]]}},{"type":"Feature","properties":{"leisure":"pitch","landuse":"grass","name":null,"web_layer_source":"F:/datasets/layers/all_leisure.geojson"},"geometry":{"type":"Polygon","coordinates":[[[85.8193768,20.2706185],[85.8193963,20.2706177],[85.8194096,20.2706202],[85.8194167,20.2706268],[85.8194237,20.2706417],[85.8194538,20.2707613],[85.8194538,20.2707737],[85.8194459,20.2707812],[85.8194308,20.2707878],[85.8182229,20.2710581],[85.8181831,20.2710631],[85.8181618,20.2710615],[85.8181344,20.2710498],[85.8181088,20.2710283],[85.8180981,20.2710092],[85.8180919,20.2709901],[85.8180919,20.2709685],[85.8180928,20.2709494],[85.8181017,20.270927],[85.8181167,20.2709054],[85.8181265,20.2708979],[85.8181645,20.270883],[85.8193768,20.2706185]]]}},{"type":"Feature","properties":{"leisure":"pitch","landuse":"grass","name":null,"web_layer_source":"F:/datasets/layers/all_leisure.geojson"},"geometry":{"type":"Polygon","coordinates":[[[85.8178389,20.2709756],[85.8178282,20.2709913],[85.8178222,20.2710039],[85.8178188,20.2710246],[85.8178215,20.2710548],[85.8178269,20.2710724],[85.8178403,20.2710919],[85.8178624,20.2711083],[85.8178872,20.271119],[85.8179107,20.2711209],[85.8179388,20.2711196],[85.8179677,20.2711146],[85.8179878,20.2711083],[85.8180059,20.2710982],[85.8180227,20.2710812],[85.8180341,20.2710624],[85.8180401,20.2710422],[85.8180401,20.2710202],[85.8180361,20.2709944],[85.8180253,20.2709712],[85.8180099,20.270951],[85.8179898,20.2709403],[85.8179683,20.2709347],[85.8179422,20.2709341],[85.8179113,20.2709366],[85.8178812,20.2709454],[85.8178624,20.2709529],[85.817849,20.270963],[85.8178389,20.2709756]]]}},{"type":"Feature","properties":{"leisure":"pitch","landuse":"grass","name":null,"web_layer_source":"F:/datasets/layers/all_leisure.geojson"},"geometry":{"type":"Polygon","coordinates":[[[85.8180354,20.2713725],[85.8180367,20.271414],[85.8180421,20.2714542],[85.8180595,20.2715108],[85.8181427,20.2716656],[85.8181748,20.2717058],[85.818195,20.2717184],[85.8182218,20.2717247],[85.8182607,20.271726],[85.8183023,20.2717209],[85.8183371,20.2717084],[85.8183814,20.2716832],[85.8184122,20.271653],[85.8184297,20.2716153],[85.8184283,20.27158],[85.8184203,20.2715398],[85.8183036,20.2713309],[85.8182781,20.271302],[85.8182446,20.2712781],[85.8182057,20.2712718],[85.8181601,20.2712718],[85.8181105,20.2712857],[85.8180743,20.2713007],[85.8180501,20.2713347],[85.8180354,20.2713725]]]}},{"type":"Feature","properties":{"leisure":"pitch","landuse":"grass","name":null,"web_layer_source":"F:/datasets/layers/all_leisure.geojson"},"geometry":{"type":"Polygon","coordinates":[[[85.8180138,20.271175],[85.8179789,20.2711851],[85.8179601,20.2712027],[85.8179588,20.2712228],[85.8179615,20.2712367],[85.8179802,20.271248],[85.8180017,20.271248],[85.8181774,20.2712002],[85.8182149,20.2711952],[85.8182511,20.2711952],[85.818282,20.271204],[85.8183075,20.2712241],[85.8184523,20.2714556],[85.8194273,20.2712582],[85.8194378,20.2712396],[85.819453,20.271221],[85.8194764,20.2712089],[85.819516,20.2711991],[85.8195476,20.2711914],[85.8194856,20.2708856],[85.8194797,20.2708713],[85.8194669,20.2708669],[85.8194447,20.2708658],[85.8180138,20.271175]]]}},{"type":"Feature","properties":{"leisure":"pitch","landuse":"grass","name":null,"web_layer_source":"F:/datasets/layers/all_leisure.geojson"},"geometry":{"type":"Polygon","coordinates":[[[85.8195809,20.2708342],[85.8195563,20.2708429],[85.8195547,20.2708559],[85.8195532,20.2708747],[85.819567,20.2708863],[85.8195809,20.270892],[85.819795,20.2708342],[85.8198459,20.270827],[85.8198952,20.2708299],[85.8199223,20.2708405],[85.8199548,20.2708609],[85.8199824,20.2708695],[85.8200138,20.2708747],[85.8206392,20.2707403],[85.8207415,20.2707211],[85.8207326,20.2706547],[85.8207185,20.2706265],[85.8207061,20.2706115],[85.8206795,20.2706016],[85.8206441,20.2706065],[85.8195809,20.2708342]]]}},{"type":"Feature","properties":{"leisure":"park","landuse":null,"name":"Master Canteen Park","web_layer_source":"F:/datasets/layers/all_leisure.geojson"},"geometry":{"type":"Polygon","coordinates":[[[85.840738,20.2683723],[85.8407232,20.2684151],[85.8407185,20.2684597],[85.8407239,20.2685043],[85.8407393,20.2685469],[85.8407639,20.2685853],[85.8407968,20.268618],[85.8408362,20.2686434],[85.8408805,20.2686604],[85.8409277,20.2686682],[85.8409755,20.2686664],[85.8410218,20.2686551],[85.8410645,20.2686348],[85.8411017,20.2686065],[85.8411316,20.2685715],[85.8411533,20.2685302],[85.8411649,20.2684855],[85.8411659,20.2684395],[85.8411562,20.2683944],[85.8411363,20.2683524],[85.8411071,20.2683154],[85.84107,20.2682853],[85.8410268,20.2682634],[85.8409796,20.2682509],[85.8409307,20.2682483],[85.8408823,20.2682558],[85.8408367,20.268273],[85.8407963,20.268299],[85.8407629,20.2683327],[85.840738,20.2683723]]]}},{"type":"Feature","properties":{"leisure":"park","landuse":null,"name":"Children Park","web_layer_source":"F:/datasets/layers/all_leisure.geojson"},"geometry":{"type":"Polygon","coordinates":[[[85.8309714,20.2795432],[85.830958,20.2792287],[85.8327283,20.2791809],[85.8327336,20.2794829],[85.8309714,20.2795432]]]}},{"type":"Feature","properties":{"leisure":"park","landuse":null,"name":null,"web_layer_source":"F:/datasets/layers/all_leisure.geojson"},"geometry":{"type":"Polygon","coordinates":[[[85.8267632,20.2752307],[85.8268099,20.2753424],[85.8268053,20.2755592],[85.8267656,20.2756622],[85.8267422,20.2756885],[85.8262846,20.2758505],[85.8262168,20.2758527],[85.8261655,20.2758418],[85.8260627,20.2757695],[85.825974,20.2756359],[85.8259273,20.2755154],[85.8267632,20.2752307]]]}},{"type":"Feature","properties":{"leisure":"park","landuse":null,"name":null,"web_layer_source":"F:/datasets/layers/all_leisure.geojson"},"geometry":{"type":"Polygon","coordinates":[[[85.8272467,20.2750537],[85.8273074,20.2751851],[85.8273471,20.2752377],[85.8275362,20.2753516],[85.8275853,20.2753691],[85.827639,20.2753626],[85.8279939,20.2752355],[85.8280313,20.2751983],[85.8280499,20.2751567],[85.8280663,20.2749595],[85.8280593,20.274896],[85.8280196,20.2747777],[85.8272467,20.2750537]]]}},{"type":"Feature","properties":{"leisure":"park","landuse":null,"name":"Kabi Samrat Upendra Bhanja BDA Park","web_layer_source":"F:/datasets/layers/all_leisure.geojson"},"geometry":{"type":"Polygon","coordinates":[[[85.828539,20.2745895],[85.8285927,20.2747053],[85.8286275,20.2747531],[85.8288314,20.2748613],[85.8288904,20.2748839],[85.8289521,20.2748864],[85.8293222,20.274748],[85.8293651,20.2747053],[85.8293973,20.2746373],[85.8294161,20.2744713],[85.8294107,20.2743983],[85.8293893,20.2743002],[85.828539,20.2745895]]]}},{"type":"Feature","properties":{"leisure":"park","landuse":null,"name":null,"web_layer_source":"F:/datasets/layers/all_leisure.geojson"},"geometry":{"type":"Polygon","coordinates":[[[85.8298074,20.2741312],[85.8298461,20.2742266],[85.8298745,20.2742666],[85.8301184,20.2744344],[85.8301489,20.2744497],[85.8301916,20.2744573],[85.8302465,20.2744478],[85.8306002,20.274299],[85.8306266,20.2742762],[85.8306571,20.2742361],[85.8306693,20.2741789],[85.8306734,20.2739673],[85.8306632,20.2739158],[85.8306368,20.2738319],[85.8298074,20.2741312]]]}},{"type":"Feature","properties":{"leisure":"park","landuse":null,"name":null,"web_layer_source":"F:/datasets/layers/all_leisure.geojson"},"geometry":{"type":"Polygon","coordinates":[[[85.8313838,20.2735982],[85.8314052,20.2736611],[85.8314321,20.2737038],[85.8316064,20.2738749],[85.8316466,20.2739051],[85.8316976,20.2739202],[85.8317432,20.2739177],[85.8320275,20.2738221],[85.8320516,20.2737969],[85.8320704,20.2737567],[85.8320704,20.2737189],[85.8320731,20.2734774],[85.8320677,20.2734447],[85.8320409,20.2733617],[85.8313838,20.2735982]]]}},{"type":"Feature","properties":{"leisure":"park","landuse":null,"name":"BDA City Centre (NICCO Park)","web_layer_source":"F:/datasets/layers/all_leisure.geojson"},"geometry":{"type":"Polygon","coordinates":[[[85.8294675,20.2856434],[85.8292743,20.2855881],[85.8295801,20.2845817],[85.8302131,20.2847176],[85.831007,20.2848987],[85.830991,20.284944],[85.8317366,20.2851101],[85.8316883,20.2852912],[85.8319244,20.2853516],[85.8319726,20.2852208],[85.8326164,20.2852409],[85.8326325,20.2853918],[85.8329758,20.2853616],[85.8329812,20.2852811],[85.8334103,20.2852308],[85.8333835,20.2851352],[85.8347514,20.2850094],[85.8345958,20.2863529],[85.8336517,20.2864183],[85.8316454,20.2862472],[85.830315,20.2860057],[85.8299181,20.2859302],[85.8299556,20.285734],[85.8294675,20.2856434]]]}},{"type":"Feature","properties":{"leisure":"park","landuse":null,"name":"Ravana Park","web_layer_source":"F:/datasets/layers/all_leisure.geojson"},"geometry":{"type":"Polygon","coordinates":[[[85.8482872,20.2869065],[85.8483136,20.2866421],[85.8492823,20.2867632],[85.8492424,20.2870308],[85.8482872,20.2869065]]]}},{"type":"Feature","properties":{"leisure":"park","landuse":null,"name":"Ravana Park","web_layer_source":"F:/datasets/layers/all_leisure.geojson"},"geometry":{"type":"Polygon","coordinates":[[[85.8504048,20.2871816],[85.8504452,20.2869111],[85.8517528,20.2870749],[85.8517138,20.2873515],[85.8504048,20.2871816]]]}},{"type":"Feature","properties":{"leisure":"park","landuse":null,"name":"Saheed Nagar Children Park","web_layer_source":"F:/datasets/layers/all_leisure.geojson"},"geometry":{"type":"Polygon","coordinates":[[[85.851299,20.2888959],[85.8519897,20.2889789],[85.8520447,20.2885286],[85.8513527,20.2884431],[85.851299,20.2888959]]]}},{"type":"Feature","properties":{"leisure":"park","landuse":null,"name":"IMFA Park","web_layer_source":"F:/datasets/layers/all_leisure.geojson"},"geometry":{"type":"Polygon","coordinates":[[[85.850909,20.2927774],[85.8518499,20.2927438],[85.8520276,20.2918048],[85.8511226,20.2908371],[85.8510446,20.2908976],[85.8502002,20.2915534],[85.8501225,20.2916162],[85.850909,20.2927774]]]}},{"type":"Feature","properties":{"leisure":"park","landuse":null,"name":"Saheed Sporting Club","web_layer_source":"F:/datasets/layers/all_leisure.geojson"},"geometry":{"type":"Polygon","coordinates":[[[85.8442512,20.2882069],[85.8448976,20.2882717],[85.8447811,20.2891373],[85.8441296,20.2890606],[85.8442512,20.2882069]]]}},{"type":"Feature","properties":{"leisure":"park","landuse":null,"name":"Dr Shyam Prasad Mukherjee Park","web_layer_source":"F:/datasets/layers/all_leisure.geojson"},"geometry":{"type":"Polygon","coordinates":[[[85.8478017,20.2959836],[85.8478551,20.2967562],[85.8478845,20.296818],[85.8479718,20.296853],[85.8480586,20.2968671],[85.8496749,20.2969053],[85.8496798,20.2958137],[85.8478017,20.2959836]]]}},{"type":"Feature","properties":{"leisure":"park","landuse":null,"name":"Utkal University Stadium","web_layer_source":"F:/datasets/layers/all_leisure.geojson"},"geometry":{"type":"Polygon","coordinates":[[[85.8376045,20.2979643],[85.8387042,20.2983769],[85.8388275,20.2986285],[85.8389348,20.2993781],[85.8400323,20.2992972],[85.8401794,20.2988851],[85.8408392,20.2984021],[85.8408526,20.2981178],[85.8407588,20.2978335],[85.8404047,20.2971693],[85.8403941,20.2967653],[85.8375359,20.2969378],[85.8376045,20.2979643]]]}},{"type":"Feature","properties":{"leisure":"park","landuse":null,"name":"IMMT Park","web_layer_source":"F:/datasets/layers/all_leisure.geojson"},"geometry":{"type":"Polygon","coordinates":[[[85.8259796,20.299886],[85.8271263,20.3003342],[85.8273847,20.2997234],[85.8262592,20.2992753],[85.8259796,20.299886]]]}},{"type":"Feature","properties":{"leisure":"park","landuse":null,"name":"Ekamra Kanan","web_layer_source":"F:/datasets/layers/all_leisure.geojson"},"geometry":{"type":"Polygon","coordinates":[[[85.8040963,20.2970843],[85.8040658,20.2978939],[85.8040928,20.298065],[85.8041701,20.2981946],[85.8043987,20.2984368],[85.8046615,20.298638],[85.8048251,20.2987311],[85.8050606,20.2988897],[85.8052376,20.2989224],[85.8054737,20.2989023],[85.8057285,20.2988972],[85.8058036,20.2989148],[85.8058572,20.2989425],[85.8058921,20.2990129],[85.8059538,20.2993953],[85.8060349,20.299376],[85.8060674,20.2996525],[85.8061154,20.3000603],[85.8061047,20.300342],[85.806051,20.3005131],[85.8059384,20.300659],[85.8060779,20.3010564],[85.8061208,20.3012124],[85.8062656,20.3012476],[85.8069361,20.3024433],[85.8076015,20.3037909],[85.8090857,20.3042699],[85.8076049,20.3068746],[85.8012709,20.3107331],[85.7985675,20.31079],[85.7940517,20.3055694],[85.7914784,20.3045972],[85.7928847,20.2960878],[85.8040963,20.2970843]]]}},{"type":"Feature","properties":{"leisure":"park","landuse":null,"name":"Children's Park","web_layer_source":"F:/datasets/layers/all_leisure.geojson"},"geometry":{"type":"Polygon","coordinates":[[[85.8139232,20.2687159],[85.8149666,20.2680818],[85.8150899,20.2683033],[85.8151731,20.2686153],[85.8139312,20.2687411],[85.8139232,20.2687159]]]}},{"type":"Feature","properties":{"leisure":"park","landuse":null,"name":null,"web_layer_source":"F:/datasets/layers/all_leisure.geojson"},"geometry":{"type":"Polygon","coordinates":[[[85.8298675,20.2625123],[85.8299436,20.262587],[85.8300339,20.2626617],[85.8301117,20.2627082],[85.8302073,20.262753],[85.8303117,20.2627812],[85.830425,20.2628028],[85.83054,20.2628144],[85.8306656,20.2628061],[85.8308125,20.2627829],[85.8309346,20.2627464],[85.8310532,20.2626883],[85.8308037,20.2623463],[85.8307063,20.2623861],[85.8306391,20.2623994],[85.830563,20.262411],[85.8304904,20.2624044],[85.830402,20.2623828],[85.8301949,20.2622766],[85.8298675,20.2625123]]]}},{"type":"Feature","properties":{"leisure":"park","landuse":null,"name":"Triangular Park","web_layer_source":"F:/datasets/layers/all_leisure.geojson"},"geometry":{"type":"Polygon","coordinates":[[[85.7938509,20.283579],[85.7946242,20.2840172],[85.794311,20.2844189],[85.7938297,20.2835989],[85.7938509,20.283579]]]}},{"type":"Feature","properties":{"leisure":"park","landuse":null,"name":null,"web_layer_source":"F:/datasets/layers/all_leisure.geojson"},"geometry":{"type":"Polygon","coordinates":[[[85.795786,20.2820422],[85.7955309,20.2819178],[85.7957071,20.2816013],[85.7959565,20.2817498],[85.795786,20.2820422]]]}},{"type":"Feature","properties":{"leisure":"park","landuse":null,"name":"BDA Park","web_layer_source":"F:/datasets/layers/all_leisure.geojson"},"geometry":{"type":"Polygon","coordinates":[[[85.8057318,20.2932612],[85.80593,20.2921326],[85.8067688,20.2922919],[85.806744,20.292448],[85.8072289,20.2925309],[85.8071758,20.2928563],[85.8064326,20.2927733],[85.8063689,20.2931782],[85.8057318,20.2932612]]]}},{"type":"Feature","properties":{"leisure":"park","landuse":null,"name":"N3 BDA Park","web_layer_source":"F:/datasets/layers/all_leisure.geojson"},"geometry":{"type":"Polygon","coordinates":[[[85.8073502,20.2960895],[85.807605,20.2961071],[85.8073126,20.2969121],[85.8070766,20.2969247],[85.8073502,20.2960895]]]}},{"type":"Feature","properties":{"leisure":"park","landuse":null,"name":"N-3 Park","web_layer_source":"F:/datasets/layers/all_leisure.geojson"},"geometry":{"type":"Polygon","coordinates":[[[85.8096028,20.2968763],[85.8100341,20.2960296],[85.8113066,20.2966047],[85.8110508,20.2970641],[85.8096028,20.2968763]]]}},{"type":"Feature","properties":{"leisure":"park","landuse":null,"name":"Swami Vivekananda Park","web_layer_source":"F:/datasets/layers/all_leisure.geojson"},"geometry":{"type":"Polygon","coordinates":[[[85.8474026,20.2559837],[85.8475571,20.2561477],[85.8483194,20.2555623],[85.848171,20.2553907],[85.8474026,20.2559837]]]}},{"type":"Feature","properties":{"leisure":"park","landuse":null,"name":"BJB Nagar Park","web_layer_source":"F:/datasets/layers/all_leisure.geojson"},"geometry":{"type":"Polygon","coordinates":[[[85.8455086,20.2577432],[85.8453527,20.2575699],[85.8473276,20.256038],[85.8474793,20.256211],[85.8455086,20.2577432]]]}},{"type":"Feature","properties":{"leisure":"park","landuse":null,"name":"Indradhanu Market Park","web_layer_source":"F:/datasets/layers/all_leisure.geojson"},"geometry":{"type":"Polygon","coordinates":[[[85.8146914,20.294174],[85.8147777,20.2941076],[85.8148701,20.2940758],[85.815055,20.2940613],[85.8152706,20.2940584],[85.8155479,20.2940671],[85.8157328,20.2940931],[85.8158683,20.2941365],[85.8159639,20.2941885],[85.8160532,20.294255],[85.8160994,20.2943301],[85.8161056,20.294411],[85.8146945,20.2942],[85.8146914,20.294174]]]}},{"type":"Feature","properties":{"leisure":"park","landuse":null,"name":"Baramunda Duplex Park","web_layer_source":"F:/datasets/layers/all_leisure.geojson"},"geometry":{"type":"Polygon","coordinates":[[[85.7932095,20.2765224],[85.7929949,20.2761652],[85.7938237,20.2757601],[85.7940463,20.2761526],[85.7932095,20.2765224]]]}},{"type":"Feature","properties":{"leisure":"pitch","landuse":"grass","name":null,"web_layer_source":"F:/datasets/layers/all_leisure.geojson"},"geometry":{"type":"Polygon","coordinates":[[[85.8307746,20.2702977],[85.8307606,20.2703076],[85.8307443,20.2703262],[85.8307338,20.2703558],[85.8307303,20.270393],[85.8307384,20.270439],[85.8307571,20.2704981],[85.8307805,20.2705409],[85.8308003,20.2705737],[85.830847,20.2706383],[85.8308902,20.2706843],[85.8309346,20.2707227],[85.8309871,20.2707588],[85.8310338,20.2707829],[85.8310887,20.2707982],[85.8311272,20.270807],[85.8311611,20.2708059],[85.8311891,20.2707949],[85.8312171,20.2707708],[85.8312381,20.2707424],[85.8312451,20.270704],[85.8312381,20.2706537],[85.8312241,20.2706055],[85.8311926,20.2705409],[85.8311681,20.270496],[85.8311354,20.2704478],[85.831084,20.2703963],[85.8310292,20.2703536],[85.8309673,20.2703196],[85.8309077,20.2702955],[85.8308587,20.2702846],[85.8308167,20.2702813],[85.830791,20.2702879],[85.8307746,20.2702977]]]}},{"type":"Feature","properties":{"leisure":"pitch","landuse":"grass","name":null,"web_layer_source":"F:/datasets/layers/all_leisure.geojson"},"geometry":{"type":"Polygon","coordinates":[[[85.8307888,20.2699624],[85.8306709,20.2700763],[85.8306534,20.2701059],[85.8306546,20.2701289],[85.8306627,20.2701552],[85.8306872,20.2701705],[85.8307351,20.2701716],[85.83079,20.270176],[85.8308542,20.2701859],[85.8309523,20.2702165],[85.8310129,20.2702388],[85.831082,20.2702731],[85.831145,20.2703227],[85.8312121,20.2703952],[85.8312548,20.2704562],[85.8313056,20.2705611],[85.8313422,20.2706621],[85.8313645,20.2707689],[85.8313666,20.2708337],[85.8313747,20.2708623],[85.8313841,20.2708782],[85.8314024,20.2708839],[85.8314207,20.2708849],[85.83144,20.2708772],[85.8321413,20.2702183],[85.8321524,20.2701974],[85.8321595,20.2701754],[85.8321594,20.2701409],[85.8317187,20.2693185],[85.8316902,20.2693013],[85.8316495,20.2692899],[85.8315987,20.2692842],[85.8315642,20.2692899],[85.8307888,20.2699624]]]}},{"type":"Feature","properties":{"leisure":"pitch","landuse":"grass","name":null,"web_layer_source":"F:/datasets/layers/all_leisure.geojson"},"geometry":{"type":"Polygon","coordinates":[[[85.8308424,20.2707626],[85.8308023,20.2707929],[85.831112,20.2710921],[85.8312501,20.2709617],[85.8312559,20.2709475],[85.8312536,20.2709354],[85.8312454,20.2709223],[85.8311964,20.2709015],[85.8310902,20.2708818],[85.8310108,20.2708621],[85.8309244,20.2708292],[85.8308424,20.2707626]]]}},{"type":"Feature","properties":{"leisure":"pitch","landuse":"grass","name":null,"web_layer_source":"F:/datasets/layers/all_leisure.geojson"},"geometry":{"type":"Polygon","coordinates":[[[85.8307075,20.2706934],[85.8307517,20.2706602],[85.8307146,20.2706187],[85.8306827,20.2705706],[85.8306526,20.2704942],[85.8306367,20.2704095],[85.8306261,20.2703299],[85.8306225,20.2702834],[85.8306172,20.2702568],[85.8305925,20.2702269],[85.8305429,20.2702153],[85.8305164,20.270222],[85.8303766,20.2703564],[85.8307075,20.2706934]]]}},{"type":"Feature","properties":{"leisure":"park","landuse":null,"name":"Buddha Jayanti Park","web_layer_source":"F:/datasets/layers/all_leisure.geojson"},"geometry":{"type":"Polygon","coordinates":[[[85.8068677,20.3254807],[85.8070003,20.3249877],[85.8070496,20.3248317],[85.8073146,20.324355],[85.8076843,20.324014],[85.8080032,20.3237815],[85.808435,20.3235658],[85.8084748,20.3227671],[85.808853,20.3226883],[85.8092805,20.3226412],[85.8094842,20.3240335],[85.8094913,20.3241331],[85.8094578,20.324405],[85.8093718,20.3247344],[85.8092387,20.3248969],[85.8090215,20.3250395],[85.8087278,20.3251693],[85.8068677,20.3254807]]]}},{"type":"Feature","properties":{"leisure":"park","landuse":null,"name":"Devi Padahara Park","web_layer_source":"F:/datasets/layers/all_leisure.geojson"},"geometry":{"type":"Polygon","coordinates":[[[85.835373,20.2387419],[85.8354322,20.2389315],[85.835609,20.2388819],[85.8355907,20.2388227],[85.8358306,20.2387484],[85.8356111,20.2381113],[85.8355254,20.2381422],[85.8357022,20.2386417],[85.835373,20.2387419]]]}},{"type":"Feature","properties":{"leisure":"park","landuse":null,"name":"Ekamra Bana","web_layer_source":"F:/datasets/layers/all_leisure.geojson"},"geometry":{"type":"Polygon","coordinates":[[[85.8337359,20.2425064],[85.8340124,20.2423983],[85.8343326,20.2431078],[85.8344275,20.2431949],[85.8346044,20.2433541],[85.8347791,20.243503],[85.8349003,20.2436816],[85.8349178,20.2437998],[85.8349697,20.2439109],[85.8350726,20.2439925],[85.8352003,20.2440654],[85.8353276,20.2440836],[85.8353693,20.2441245],[85.8351601,20.2442453],[85.8350287,20.2441824],[85.8349133,20.2440767],[85.8348704,20.2440364],[85.8347739,20.2438024],[85.8346103,20.2436564],[85.8344118,20.2434702],[85.8343072,20.243362],[85.8341114,20.2431104],[85.8337359,20.2425064]]]}},{"type":"Feature","properties":{"leisure":"park","landuse":null,"name":null,"web_layer_source":"F:/datasets/layers/all_leisure.geojson"},"geometry":{"type":"Polygon","coordinates":[[[85.8128278,20.3190015],[85.8127366,20.3182695],[85.8131336,20.3182267],[85.813147,20.3183424],[85.8132143,20.3183474],[85.81326,20.3189537],[85.8128278,20.3190015]]]}},{"type":"Feature","properties":{"leisure":"park","landuse":null,"name":"Janta Maidan Park","web_layer_source":"F:/datasets/layers/all_leisure.geojson"},"geometry":{"type":"Polygon","coordinates":[[[85.8212342,20.3063834],[85.8219207,20.3053169],[85.8233233,20.3057102],[85.8231832,20.3061728],[85.8228608,20.3066857],[85.8226879,20.3067557],[85.8212342,20.3063834]]]}},{"type":"Feature","properties":{"leisure":"park","landuse":"retail","name":"Janta Maidan exhibition centre","web_layer_source":"F:/datasets/layers/all_leisure.geojson"},"geometry":{"type":"Polygon","coordinates":[[[85.8234067,20.3062778],[85.8236555,20.305669],[85.8239002,20.3050703],[85.8253701,20.3052917],[85.8248927,20.3069167],[85.8240504,20.3068563],[85.8237983,20.3066199],[85.8237876,20.3064891],[85.8237334,20.3064093],[85.8236871,20.3063189],[85.8234067,20.3062778]]]}},{"type":"Feature","properties":{"leisure":"park","landuse":null,"name":null,"web_layer_source":"F:/datasets/layers/all_leisure.geojson"},"geometry":{"type":"Polygon","coordinates":[[[85.8493688,20.3082809],[85.8482443,20.3079535],[85.8483213,20.3077543],[85.8489302,20.306084],[85.8501268,20.3064024],[85.8500835,20.3065463],[85.8499948,20.3068172],[85.8493688,20.3082809]]]}},{"type":"Feature","properties":{"leisure":"park","landuse":null,"name":"Bhimeswar Park","web_layer_source":"F:/datasets/layers/all_leisure.geojson"},"geometry":{"type":"Polygon","coordinates":[[[85.8206093,20.2370216],[85.820545,20.2368957],[85.8211404,20.2369259],[85.8210975,20.2373286],[85.8206093,20.2370216]]]}},{"type":"Feature","properties":{"leisure":"park","landuse":null,"name":"Madhusudan Das Park","web_layer_source":"F:/datasets/layers/all_leisure.geojson"},"geometry":{"type":"Polygon","coordinates":[[[85.8098996,20.2405627],[85.8120813,20.2421249],[85.8102386,20.2505461],[85.809607,20.2503768],[85.8105017,20.2476017],[85.8101955,20.2447168],[85.8101827,20.2438909],[85.8098996,20.2405627]]]}},{"type":"Feature","properties":{"leisure":"park","landuse":null,"name":null,"web_layer_source":"F:/datasets/layers/all_leisure.geojson"},"geometry":{"type":"Polygon","coordinates":[[[85.838703,20.2721796],[85.8387753,20.272184],[85.8388244,20.2721489],[85.838759,20.2719759],[85.8386936,20.2719671],[85.8386282,20.2720088],[85.8386002,20.2719343],[85.8387824,20.2718642],[85.8393381,20.2716452],[85.8393731,20.2717569],[85.8393054,20.2717941],[85.8392774,20.2718204],[85.8393264,20.2719562],[85.8393521,20.2719934],[85.8393684,20.2720416],[85.8387403,20.2722848],[85.838703,20.2721796]]]}},{"type":"Feature","properties":{"leisure":"park","landuse":null,"name":"Children Park","web_layer_source":"F:/datasets/layers/all_leisure.geojson"},"geometry":{"type":"Polygon","coordinates":[[[85.8613036,20.3110994],[85.86136,20.3110931],[85.8613821,20.3110697],[85.8613948,20.3110498],[85.8613873,20.3110225],[85.8613649,20.3110018],[85.8613582,20.3109816],[85.8613413,20.310959],[85.8613175,20.3109364],[85.861305,20.3109213],[85.861289,20.3109049],[85.8612667,20.3108891],[85.8612294,20.310884],[85.8611699,20.3108912],[85.861135,20.3109103],[85.8609636,20.3110332],[85.860983,20.3110754],[85.8610558,20.3110512],[85.8611886,20.3111124],[85.8612352,20.3111232],[85.8613036,20.3110994]]]}},{"type":"Feature","properties":{"leisure":"park","landuse":null,"name":"Personal Garden and Park","web_layer_source":"F:/datasets/layers/all_leisure.geojson"},"geometry":{"type":"Polygon","coordinates":[[[85.8609522,20.31114],[85.860972,20.3111686],[85.8609822,20.3111855],[85.8609951,20.3112085],[85.8610115,20.3112005],[85.8610185,20.3111939],[85.8610318,20.311187],[85.8610146,20.3111572],[85.8610039,20.3111405],[85.8609861,20.3111135],[85.8609639,20.3111313],[85.8609522,20.31114]]]}},{"type":"Feature","properties":{"leisure":"park","landuse":null,"name":"Mini Park","web_layer_source":"F:/datasets/layers/all_leisure.geojson"},"geometry":{"type":"Polygon","coordinates":[[[85.8607382,20.311551],[85.8607731,20.3115436],[85.8607359,20.311422],[85.8606976,20.3114251],[85.8607043,20.3114526],[85.8607382,20.311551]]]}},{"type":"Feature","properties":{"leisure":"park","landuse":null,"name":null,"web_layer_source":"F:/datasets/layers/all_leisure.geojson"},"geometry":{"type":"Polygon","coordinates":[[[85.8464062,20.2478136],[85.8464023,20.2479236],[85.8468248,20.2479249],[85.8468315,20.2478167],[85.8466772,20.2478167],[85.8466598,20.2478179],[85.8464062,20.2478136]]]}},{"type":"Feature","properties":{"leisure":"park","landuse":null,"name":"vss play area","web_layer_source":"F:/datasets/layers/all_leisure.geojson"},"geometry":{"type":"Polygon","coordinates":[[[85.8469785,20.3048284],[85.846977,20.3047032],[85.8469726,20.3046289],[85.8470044,20.3044391],[85.8470312,20.304237],[85.847307,20.304292],[85.847414,20.3043317],[85.8475971,20.3044307],[85.8477934,20.3045403],[85.8475574,20.3046239],[85.8473254,20.304718],[85.8469785,20.3048284]]]}},{"type":"Feature","properties":{"leisure":"park","landuse":null,"name":"vss park","web_layer_source":"F:/datasets/layers/all_leisure.geojson"},"geometry":{"type":"Polygon","coordinates":[[[85.8473977,20.3043161],[85.8474132,20.3041675],[85.8474113,20.3041113],[85.8474341,20.3040204],[85.8476109,20.3040236],[85.8477217,20.3040395],[85.8478569,20.3040583],[85.8480033,20.3040925],[85.8481079,20.3041183],[85.8481621,20.3041284],[85.8480795,20.3042565],[85.8479934,20.3043847],[85.8478927,20.3044665],[85.8478069,20.3045389],[85.8477805,20.3045242],[85.8473977,20.3043161]]]}},{"type":"Feature","properties":{"leisure":"park","landuse":null,"name":"VSS Statue Bda","web_layer_source":"F:/datasets/layers/all_leisure.geojson"},"geometry":{"type":"Polygon","coordinates":[[[85.8480893,20.3039583],[85.8486239,20.3041531],[85.8486645,20.3037947],[85.8487052,20.3033981],[85.8487499,20.3030588],[85.8485781,20.3029866],[85.8480893,20.3039583]]]}},{"type":"Feature","properties":{"leisure":"park","landuse":null,"name":"Bhagwat tungi","web_layer_source":"F:/datasets/layers/all_leisure.geojson"},"geometry":{"type":"Polygon","coordinates":[[[85.8489194,20.302985],[85.8491504,20.303053],[85.8492953,20.3026224],[85.8490765,20.3025805],[85.8489194,20.302985]]]}},{"type":"Feature","properties":{"leisure":"park","landuse":null,"name":"ihm playground","web_layer_source":"F:/datasets/layers/all_leisure.geojson"},"geometry":{"type":"Polygon","coordinates":[[[85.8486479,20.302563],[85.8487219,20.3022624],[85.8489434,20.3023213],[85.8488328,20.3026236],[85.8486479,20.302563]]]}},{"type":"Feature","properties":{"leisure":"park","landuse":null,"name":"Satsang Park","web_layer_source":"F:/datasets/layers/all_leisure.geojson"},"geometry":{"type":"Polygon","coordinates":[[[85.8478334,20.2976774],[85.8478412,20.2971556],[85.8478341,20.2970592],[85.8478434,20.2969146],[85.8490483,20.2969409],[85.8489922,20.2976855],[85.8478334,20.2976774]]]}},{"type":"Feature","properties":{"leisure":"park","landuse":null,"name":"tarini mandir","web_layer_source":"F:/datasets/layers/all_leisure.geojson"},"geometry":{"type":"Polygon","coordinates":[[[85.8508475,20.2981889],[85.8510817,20.2982554],[85.8507166,20.2991768],[85.8505235,20.2991168],[85.8508475,20.2981889]]]}},{"type":"Feature","properties":{"leisure":"park","landuse":null,"name":"Bsnl Playgrounds","web_layer_source":"F:/datasets/layers/all_leisure.geojson"},"geometry":{"type":"Polygon","coordinates":[[[85.8492712,20.2991183],[85.8495395,20.2982223],[85.8501371,20.2983824],[85.8498972,20.2991832],[85.8492712,20.2991183]]]}},{"type":"Feature","properties":{"leisure":"park","landuse":null,"name":"Prabhujee Grounds","web_layer_source":"F:/datasets/layers/all_leisure.geojson"},"geometry":{"type":"Polygon","coordinates":[[[85.8460359,20.3033951],[85.8466336,20.3029265],[85.8474415,20.3031235],[85.8471847,20.3036447],[85.8460359,20.3033951]]]}},{"type":"Feature","properties":{"leisure":"park","landuse":null,"name":"Vss water tank area","web_layer_source":"F:/datasets/layers/all_leisure.geojson"},"geometry":{"type":"Polygon","coordinates":[[[85.8478462,20.3068109],[85.8479763,20.3068529],[85.8480291,20.3066927],[85.847899,20.3066432],[85.8478462,20.3068109]]]}},{"type":"Feature","properties":{"leisure":"park","landuse":null,"name":"Lotus Park","web_layer_source":"F:/datasets/layers/all_leisure.geojson"},"geometry":{"type":"Polygon","coordinates":[[[85.8466161,20.3084134],[85.8460431,20.3085059],[85.8460554,20.308789],[85.8460862,20.3090086],[85.8460862,20.3092282],[85.8460739,20.309575],[85.8463111,20.3095909],[85.8464744,20.3090086],[85.8466161,20.3084134]]]}},{"type":"Feature","properties":{"leisure":"park","landuse":null,"name":"Bira surendra sai playarea","web_layer_source":"F:/datasets/layers/all_leisure.geojson"},"geometry":{"type":"Polygon","coordinates":[[[85.8451716,20.3092888],[85.8449806,20.308858],[85.8456188,20.3086635],[85.8456229,20.3088237],[85.8456351,20.3089991],[85.8456229,20.3091516],[85.8451716,20.3092888]]]}},{"type":"Feature","properties":{"leisure":"park","landuse":null,"name":null,"web_layer_source":"F:/datasets/layers/all_leisure.geojson"},"geometry":{"type":"Polygon","coordinates":[[[85.8479501,20.2989873],[85.8479686,20.2987966],[85.8481041,20.2985018],[85.8481226,20.2984209],[85.8491764,20.2984441],[85.8490254,20.2989989],[85.8479501,20.2989873]]]}},{"type":"Feature","properties":{"leisure":"park","landuse":null,"name":null,"web_layer_source":"F:/datasets/layers/all_leisure.geojson"},"geometry":{"type":"Polygon","coordinates":[[[85.8495276,20.2974384],[85.8495338,20.2973113],[85.8495892,20.2972188],[85.8495276,20.2971206],[85.8494475,20.2970396],[85.8493304,20.2970339],[85.8493242,20.2969356],[85.8497063,20.2969472],[85.8497433,20.2970108],[85.8498234,20.2970281],[85.8498788,20.297005],[85.8498788,20.2969356],[85.850039,20.2968836],[85.850304,20.296872],[85.8506676,20.2968605],[85.8510311,20.2968316],[85.8510866,20.2968316],[85.8510311,20.2969934],[85.8509695,20.297161],[85.8509079,20.2973113],[85.8508833,20.2973749],[85.8507169,20.2977679],[85.8506429,20.2977736],[85.8506368,20.2976523],[85.8506306,20.2974904],[85.8506306,20.2974095],[85.8503348,20.2974269],[85.8498665,20.2974442],[85.8495276,20.2974384]]]}},{"type":"Feature","properties":{"leisure":"park","landuse":null,"name":"AE park","web_layer_source":"F:/datasets/layers/all_leisure.geojson"},"geometry":{"type":"Polygon","coordinates":[[[85.843414,20.3097046],[85.843296,20.309433],[85.8437305,20.3092971],[85.8439022,20.3092166],[85.8440202,20.3091663],[85.8442723,20.3091512],[85.8444225,20.3092569],[85.8445024,20.3094023],[85.8444708,20.3094682],[85.8445084,20.3095135],[85.8445996,20.3095336],[85.8446264,20.309604],[85.8446532,20.3096895],[85.844374,20.3097533],[85.8443743,20.3097097],[85.8440631,20.3097147],[85.843414,20.3097046]]]}},{"type":"Feature","properties":{"leisure":"park","landuse":null,"name":"B-L Grounds","web_layer_source":"F:/datasets/layers/all_leisure.geojson"},"geometry":{"type":"Polygon","coordinates":[[[85.8438438,20.307984],[85.8438411,20.3079786],[85.843794,20.3078861],[85.843749,20.3077678],[85.8436607,20.3075196],[85.8436562,20.3075067],[85.8436509,20.3074376],[85.8445405,20.3071421],[85.8445573,20.3071912],[85.8445723,20.3072414],[85.8447195,20.307737],[85.8438438,20.307984]]]}},{"type":"Feature","properties":{"leisure":"park","landuse":null,"name":"AE udyan1","web_layer_source":"F:/datasets/layers/all_leisure.geojson"},"geometry":{"type":"Polygon","coordinates":[[[85.8430809,20.3090075],[85.8434905,20.3088817],[85.8435108,20.308875],[85.843338,20.3085261],[85.8429315,20.3086653],[85.8430809,20.3090075]]]}},{"type":"Feature","properties":{"leisure":"park","landuse":null,"name":"ae udyan extention","web_layer_source":"F:/datasets/layers/all_leisure.geojson"},"geometry":{"type":"Polygon","coordinates":[[[85.8423952,20.3086757],[85.8447743,20.307994],[85.8447914,20.3079892],[85.84478,20.3079493],[85.8447195,20.307737],[85.8438441,20.3079846],[85.8438411,20.3079786],[85.8438034,20.3079371],[85.8437896,20.3079143],[85.8437655,20.30787],[85.8433645,20.3066103],[85.8420336,20.306995],[85.842203,20.3075117],[85.8423749,20.3079049],[85.8424049,20.3080536],[85.8424112,20.3080851],[85.8424053,20.3081514],[85.8423708,20.3086831],[85.8423952,20.3086757]]]}},{"type":"Feature","properties":{"leisure":"park","landuse":null,"name":"Ananta Vihar Park","web_layer_source":"F:/datasets/layers/all_leisure.geojson"},"geometry":{"type":"Polygon","coordinates":[[[85.8060053,20.2426512],[85.8064323,20.24262],[85.8064128,20.2423277],[85.8064102,20.2422894],[85.8063776,20.2418015],[85.8059152,20.2418392],[85.8060053,20.2426512]]]}},{"type":"Feature","properties":{"leisure":"park","landuse":null,"name":"Phase-7 Children's Park","web_layer_source":"F:/datasets/layers/all_leisure.geojson"},"geometry":{"type":"Polygon","coordinates":[[[85.8122604,20.3376266],[85.8132202,20.3375281],[85.8131675,20.3370949],[85.8122136,20.3372016],[85.8122604,20.3376266]]]}},{"type":"Feature","properties":{"leisure":"park","landuse":null,"name":"Children's Park","web_layer_source":"F:/datasets/layers/all_leisure.geojson"},"geometry":{"type":"Polygon","coordinates":[[[85.8105704,20.337574],[85.8104843,20.3369869],[85.8113318,20.3368856],[85.8114227,20.3374566],[85.8105704,20.337574]]]}},{"type":"Feature","properties":{"leisure":"park","landuse":null,"name":"Phase-6 Children's Park","web_layer_source":"F:/datasets/layers/all_leisure.geojson"},"geometry":{"type":"Polygon","coordinates":[[[85.8086826,20.3365076],[85.8086234,20.3360621],[85.8091989,20.335975],[85.8092646,20.3364461],[85.8086826,20.3365076]]]}},{"type":"Feature","properties":{"leisure":"park","landuse":null,"name":"Community Park","web_layer_source":"F:/datasets/layers/all_leisure.geojson"},"geometry":{"type":"Polygon","coordinates":[[[85.8073844,20.3366621],[85.8078062,20.3366195],[85.8077496,20.3361502],[85.8073249,20.3362074],[85.8073844,20.3366621]]]}},{"type":"Feature","properties":{"leisure":"park","landuse":null,"name":"Local Park","web_layer_source":"F:/datasets/layers/all_leisure.geojson"},"geometry":{"type":"Polygon","coordinates":[[[85.8070934,20.3309222],[85.8071285,20.3312424],[85.80713,20.3313295],[85.8067341,20.3313736],[85.8066663,20.3309626],[85.8070934,20.3309222]]]}},{"type":"Feature","properties":{"leisure":"park","landuse":null,"name":"Community Park","web_layer_source":"F:/datasets/layers/all_leisure.geojson"},"geometry":{"type":"Polygon","coordinates":[[[85.8080572,20.3312622],[85.8079993,20.3307691],[85.8084336,20.3307152],[85.8084923,20.3312107],[85.8080572,20.3312622]]]}},{"type":"Feature","properties":{"leisure":"park","landuse":null,"name":"Neeladri Central Park","web_layer_source":"F:/datasets/layers/all_leisure.geojson"},"geometry":{"type":"Polygon","coordinates":[[[85.8058854,20.3292619],[85.8058443,20.3289402],[85.8069749,20.328822],[85.807008,20.3291026],[85.8058854,20.3292619]]]}},{"type":"Feature","properties":{"leisure":"park","landuse":null,"name":"Kelucharan Park","web_layer_source":"F:/datasets/layers/all_leisure.geojson"},"geometry":{"type":"Polygon","coordinates":[[[85.8288059,20.3311727],[85.8286514,20.3307381],[85.8291878,20.3305128],[85.8301963,20.3301989],[85.8303797,20.3307168],[85.8304159,20.3308047],[85.8288059,20.3311727]]]}},{"type":"Feature","properties":{"leisure":"park","landuse":null,"name":"N1 Park","web_layer_source":"F:/datasets/layers/all_leisure.geojson"},"geometry":{"type":"Polygon","coordinates":[[[85.8067507,20.2890031],[85.8078905,20.289338],[85.8080393,20.2889927],[85.807145,20.2884849],[85.8069965,20.288749],[85.8068739,20.2886869],[85.8067507,20.2890031]]]}},{"type":"Feature","properties":{"leisure":"park","landuse":null,"name":"Rental Colony Park","web_layer_source":"F:/datasets/layers/all_leisure.geojson"},"geometry":{"type":"Polygon","coordinates":[[[85.79869,20.2888667],[85.7981746,20.2893766],[85.7989539,20.2897222],[85.7992509,20.2890802],[85.79869,20.2888667]]]}},{"type":"Feature","properties":{"leisure":"park","landuse":null,"name":"Jayadev N-6 Park","web_layer_source":"F:/datasets/layers/all_leisure.geojson"},"geometry":{"type":"Polygon","coordinates":[[[85.820086,20.2947489],[85.820375,20.2952],[85.8203909,20.2952298],[85.8210856,20.2949824],[85.8208673,20.2948684],[85.8206979,20.2946883],[85.8205556,20.294468],[85.820086,20.2947489]]]}},{"type":"Feature","properties":{"leisure":"park","landuse":null,"name":"Netaji Subash chandra Bose Park","web_layer_source":"F:/datasets/layers/all_leisure.geojson"},"geometry":{"type":"Polygon","coordinates":[[[85.8052761,20.2545963],[85.8058705,20.2559149],[85.806834,20.2547292],[85.8065378,20.2540387],[85.8052761,20.2545963]]]}},{"type":"Feature","properties":{"leisure":"park","landuse":null,"name":"Ananda Nagar Park","web_layer_source":"F:/datasets/layers/all_leisure.geojson"},"geometry":{"type":"Polygon","coordinates":[[[85.8614307,20.2848096],[85.8610257,20.2847996],[85.8609962,20.2843694],[85.861427,20.2842896],[85.8614962,20.2842886],[85.8614307,20.2848096]]]}},{"type":"Feature","properties":{"leisure":"park","landuse":null,"name":"Shiva Mandir park","web_layer_source":"F:/datasets/layers/all_leisure.geojson"},"geometry":{"type":"Polygon","coordinates":[[[85.8616116,20.2908224],[85.8620013,20.2907195],[85.8617445,20.2897609],[85.8614479,20.2898056],[85.8616116,20.2908224]]]}},{"type":"Feature","properties":{"leisure":"park","landuse":null,"name":null,"web_layer_source":"F:/datasets/layers/all_leisure.geojson"},"geometry":{"type":"Polygon","coordinates":[[[85.8488699,20.2896058],[85.849405,20.2892069],[85.8489125,20.2886984],[85.8485023,20.289033],[85.8488699,20.2896058]]]}},{"type":"Feature","properties":{"leisure":"park","landuse":null,"name":"New Ag Park","web_layer_source":"F:/datasets/layers/all_leisure.geojson"},"geometry":{"type":"Polygon","coordinates":[[[85.8296765,20.2795952],[85.830862,20.27956],[85.8308567,20.2792027],[85.8296497,20.2792329],[85.8296765,20.2795952]]]}},{"type":"Feature","properties":{"leisure":"park","landuse":null,"name":"Jharpada Mandir & Park","web_layer_source":"F:/datasets/layers/all_leisure.geojson"},"geometry":{"type":"Polygon","coordinates":[[[85.8624801,20.288386],[85.8624023,20.2880023],[85.8625337,20.2879432],[85.8628475,20.287918],[85.8631466,20.2879306],[85.8631466,20.2879872],[85.8631359,20.2880275],[85.8631064,20.2880526],[85.862763,20.2881231],[85.862763,20.2881369],[85.8631077,20.2880728],[85.8632002,20.288352],[85.8624801,20.288386]]]}},{"type":"Feature","properties":{"leisure":"park","landuse":"religious","name":"Durga Mandap","web_layer_source":"F:/datasets/layers/all_leisure.geojson"},"geometry":{"type":"Polygon","coordinates":[[[85.8427831,20.2907346],[85.8432967,20.2908076],[85.8434053,20.2900805],[85.8428971,20.2900088],[85.8427831,20.2907346]]]}},{"type":"Feature","properties":{"leisure":"park","landuse":null,"name":null,"web_layer_source":"F:/datasets/layers/all_leisure.geojson"},"geometry":{"type":"Polygon","coordinates":[[[85.844206,20.2914604],[85.8442838,20.2903082],[85.8441416,20.2902428],[85.8440531,20.2901824],[85.8439726,20.2901472],[85.8434308,20.2900918],[85.8433141,20.2908113],[85.8435462,20.2908943],[85.8436897,20.2909887],[85.8437862,20.2911132],[85.8438466,20.2912466],[85.8438519,20.2914541],[85.8442033,20.2914755],[85.844206,20.2914604]]]}},{"type":"Feature","properties":{"leisure":"park","landuse":null,"name":null,"web_layer_source":"F:/datasets/layers/all_leisure.geojson"},"geometry":{"type":"Polygon","coordinates":[[[85.8632094,20.288347],[85.8631168,20.2880715],[85.863149,20.2880388],[85.8631664,20.287991],[85.8631631,20.2879275],[85.8634259,20.2879533],[85.8634829,20.2879369],[85.8635446,20.2883218],[85.8632094,20.288347]]]}},{"type":"Feature","properties":{"leisure":"park","landuse":null,"name":"Municipality park","web_layer_source":"F:/datasets/layers/all_leisure.geojson"},"geometry":{"type":"Polygon","coordinates":[[[85.8415144,20.2292774],[85.842295,20.2290116],[85.8421982,20.2287231],[85.8417169,20.228803],[85.8415144,20.2292774]]]}},{"type":"Feature","properties":{"leisure":"park","landuse":null,"name":"Indira park","web_layer_source":"F:/datasets/layers/all_leisure.geojson"},"geometry":{"type":"Polygon","coordinates":[[[85.8480292,20.2180082],[85.8486813,20.2180427],[85.8486629,20.217674],[85.8480768,20.2176927],[85.8480292,20.2180082]]]}},{"type":"Feature","properties":{"leisure":"park","landuse":null,"name":"ravanna park","web_layer_source":"F:/datasets/layers/all_leisure.geojson"},"geometry":{"type":"Polygon","coordinates":[[[85.8482839,20.2869158],[85.8517312,20.2873639],[85.851743,20.2871909],[85.8517507,20.2870779],[85.8483092,20.2866023],[85.8482839,20.2869158]]]}},{"type":"Feature","properties":{"leisure":"park","landuse":null,"name":"OMC park","web_layer_source":"F:/datasets/layers/all_leisure.geojson"},"geometry":{"type":"Polygon","coordinates":[[[85.8482742,20.2869145],[85.8503942,20.2871897],[85.8517312,20.2873639],[85.851743,20.2871909],[85.8517507,20.2870779],[85.8504289,20.2869046],[85.8492931,20.2867566],[85.8483059,20.2866321],[85.8482742,20.2869145]]]}},{"type":"Feature","properties":{"leisure":"park","landuse":null,"name":"Jaydurga Nagar Park","web_layer_source":"F:/datasets/layers/all_leisure.geojson"},"geometry":{"type":"Polygon","coordinates":[[[85.8589778,20.2813632],[85.8590059,20.2813455],[85.8590218,20.2813075],[85.8590239,20.2811287],[85.8589944,20.2809605],[85.8595206,20.2810219],[85.8595356,20.2812236],[85.8593804,20.2812874],[85.8592933,20.281344],[85.859253,20.2813591],[85.8592517,20.2814069],[85.8591927,20.281417],[85.8591685,20.2813692],[85.8590183,20.2814057],[85.8589778,20.2813632]]]}},{"type":"Feature","properties":{"leisure":"park","landuse":null,"name":"RT park","web_layer_source":"F:/datasets/layers/all_leisure.geojson"},"geometry":{"type":"Polygon","coordinates":[[[85.8496841,20.2958391],[85.84968,20.2964035],[85.8496767,20.2968672],[85.8496781,20.2969437],[85.8498774,20.2969371],[85.8498781,20.2969344],[85.8498825,20.2969332],[85.8500388,20.2968828],[85.850867,20.2968118],[85.8510578,20.2968302],[85.8510853,20.2968302],[85.8510895,20.2968311],[85.8510869,20.2968362],[85.8511271,20.2968442],[85.8513465,20.2961631],[85.8514679,20.2956968],[85.8496841,20.2958391]]]}},{"type":"Feature","properties":{"leisure":"park","landuse":null,"name":"Utkala Nagar Park","web_layer_source":"F:/datasets/layers/all_leisure.geojson"},"geometry":{"type":"Polygon","coordinates":[[[85.8354518,20.3043587],[85.8353991,20.3037963],[85.8359221,20.3037542],[85.8368704,20.3036649],[85.8371771,20.3036415],[85.8371888,20.3041943],[85.8373765,20.304169],[85.8373804,20.3042239],[85.8373811,20.3042344],[85.8354518,20.3043587]]]}},{"type":"Feature","properties":{"leisure":"park","landuse":null,"name":"Mahatma Gandhi Memorial Park","web_layer_source":"F:/datasets/layers/all_leisure.geojson"},"geometry":{"type":"Polygon","coordinates":[[[85.8394661,20.302514],[85.8394517,20.3021976],[85.8402095,20.3021594],[85.8402931,20.3024922],[85.8394661,20.302514]]]}},{"type":"Feature","properties":{"leisure":"park","landuse":null,"name":"Rock garden","web_layer_source":"F:/datasets/layers/all_leisure.geojson"},"geometry":{"type":"Polygon","coordinates":[[[85.8394149,20.3030546],[85.839388,20.3026616],[85.8398554,20.3026514],[85.8400178,20.3026514],[85.8400563,20.3030646],[85.8394149,20.3030546]]]}},{"type":"Feature","properties":{"leisure":"park","landuse":null,"name":"Pharmacy ground","web_layer_source":"F:/datasets/layers/all_leisure.geojson"},"geometry":{"type":"Polygon","coordinates":[[[85.8418346,20.3069893],[85.841516,20.3060245],[85.8426115,20.3057712],[85.842703,20.306042],[85.8427527,20.3061832],[85.8426966,20.3064213],[85.8426546,20.3065596],[85.842634,20.3067054],[85.8418346,20.3069893]]]}},{"type":"Feature","properties":{"leisure":"park","landuse":null,"name":"Utkala playground","web_layer_source":"F:/datasets/layers/all_leisure.geojson"},"geometry":{"type":"Polygon","coordinates":[[[85.8361114,20.3024754],[85.8360447,20.3017326],[85.8369186,20.3016386],[85.8369581,20.3020485],[85.8369884,20.3024014],[85.8361114,20.3024754]]]}},{"type":"Feature","properties":{"leisure":"park","landuse":null,"name":"Dhirikuti Sahi football Ground","web_layer_source":"F:/datasets/layers/all_leisure.geojson"},"geometry":{"type":"Polygon","coordinates":[[[85.8435871,20.3169052],[85.8436257,20.3167301],[85.8436493,20.3166074],[85.8436214,20.3164263],[85.8436901,20.3164162],[85.8437158,20.3163498],[85.8436901,20.3162371],[85.8436792,20.3161823],[85.8436783,20.3161702],[85.8438629,20.3161522],[85.8439159,20.3161373],[85.8447781,20.3159939],[85.8447903,20.316019],[85.8451622,20.3168113],[85.8435871,20.3169052]]]}},{"type":"Feature","properties":{"leisure":"park","landuse":null,"name":"pollutech park","web_layer_source":"F:/datasets/layers/all_leisure.geojson"},"geometry":{"type":"Polygon","coordinates":[[[85.8513336,20.2987589],[85.8514625,20.2983748],[85.8515824,20.2980409],[85.8516395,20.2978551],[85.8522046,20.2980085],[85.8526401,20.2981928],[85.8525674,20.2982898],[85.8522124,20.2992105],[85.851252,20.2989465],[85.8512889,20.2988256],[85.8513138,20.2987518],[85.8513336,20.2987589]]]}},{"type":"Feature","properties":{"leisure":"park","landuse":null,"name":"Annapurna park","web_layer_source":"F:/datasets/layers/all_leisure.geojson"},"geometry":{"type":"Polygon","coordinates":[[[85.8521583,20.2996236],[85.8521899,20.2995355],[85.8525265,20.2986126],[85.8531002,20.2988025],[85.8547831,20.2993572],[85.8547873,20.299359],[85.8551089,20.2985741],[85.8558925,20.2991547],[85.8553111,20.3006661],[85.8521583,20.2996236]]]}},{"type":"Feature","properties":{"leisure":"park","landuse":null,"name":null,"web_layer_source":"F:/datasets/layers/all_leisure.geojson"},"geometry":{"type":"Polygon","coordinates":[[[85.8076552,20.3345191],[85.8076088,20.334218],[85.8075948,20.3341142],[85.8074449,20.333],[85.8081689,20.3329106],[85.8083347,20.3344323],[85.8076552,20.3345191]]]}},{"type":"Feature","properties":{"leisure":"park","landuse":null,"name":"Madhusudan Das Park","web_layer_source":"F:/datasets/layers/all_leisure.geojson"},"geometry":{"type":"Polygon","coordinates":[[[85.8096008,20.2503743],[85.8102386,20.2505461],[85.810788,20.2476454],[85.8120813,20.2421249],[85.8098996,20.2405627],[85.8100945,20.2423755],[85.8101365,20.2442747],[85.8102645,20.2454531],[85.8105017,20.2476017],[85.8096008,20.2503743]]]}},{"type":"Feature","properties":{"leisure":"park","landuse":null,"name":"IMFA Park extension","web_layer_source":"F:/datasets/layers/all_leisure.geojson"},"geometry":{"type":"Polygon","coordinates":[[[85.8506667,20.2903628],[85.8508672,20.2905714],[85.8511226,20.2908371],[85.8510446,20.2908976],[85.8502002,20.2915534],[85.8501225,20.2916162],[85.8500193,20.2914562],[85.8499658,20.2912757],[85.8500873,20.291124],[85.8502791,20.2909731],[85.8501548,20.2907624],[85.8506667,20.2903628]]]}},{"type":"Feature","properties":{"leisure":"park","landuse":null,"name":"BDA Park","web_layer_source":"F:/datasets/layers/all_leisure.geojson"},"geometry":{"type":"Polygon","coordinates":[[[85.8504149,20.2893911],[85.8503829,20.2899661],[85.8502584,20.2899671],[85.850128,20.2898181],[85.8498245,20.289501],[85.8496343,20.2893042],[85.850107,20.2893554],[85.8504149,20.2893911]]]}},{"type":"Feature","properties":{"leisure":"park","landuse":null,"name":"Railway Children's Park","web_layer_source":"F:/datasets/layers/all_leisure.geojson"},"geometry":{"type":"Polygon","coordinates":[[[85.826632,20.3227757],[85.8276105,20.3228668],[85.8277243,20.322021],[85.8267292,20.3219298],[85.826632,20.3227757]]]}},{"type":"Feature","properties":{"leisure":"park","landuse":null,"name":null,"web_layer_source":"F:/datasets/layers/all_leisure.geojson"},"geometry":{"type":"Polygon","coordinates":[[[85.8302065,20.2615534],[85.8307941,20.2611749],[85.8301818,20.2603149],[85.8295766,20.2606868],[85.8302065,20.2615534]]]}},{"type":"Feature","properties":{"leisure":"fitness_centre","landuse":null,"name":null,"web_layer_source":"F:/datasets/layers/all_leisure.geojson"},"geometry":{"type":"Polygon","coordinates":[[[85.8199358,20.3522507],[85.8202122,20.3522401],[85.8202007,20.3520048],[85.8199265,20.3520164],[85.8199358,20.3522507]]]}},{"type":"Feature","properties":{"leisure":"park","landuse":null,"name":"Bhagabat sandhan new renovated park","web_layer_source":"F:/datasets/layers/all_leisure.geojson"},"geometry":{"type":"Polygon","coordinates":[[[85.862708,20.2900791],[85.8634778,20.2900294],[85.8634795,20.2899497],[85.8626991,20.2900078],[85.862708,20.2900791]]]}},{"type":"Feature","properties":{"leisure":"park","landuse":null,"name":null,"web_layer_source":"F:/datasets/layers/all_leisure.geojson"},"geometry":{"type":"Polygon","coordinates":[[[85.8210633,20.2552105],[85.8202632,20.2542885],[85.8200111,20.2540402],[85.8198977,20.2540166],[85.8198032,20.2540934],[85.8194882,20.2544776],[85.8192659,20.2547109],[85.8189757,20.2550834],[85.8187202,20.2554102],[85.8184137,20.2557762],[85.8181838,20.2560572],[85.8178843,20.2564994],[85.8176149,20.2568393],[85.8174431,20.2569983],[85.817399,20.2569787],[85.8171203,20.2572684],[85.8167674,20.2576736],[85.8167116,20.2577586],[85.8166931,20.2578174],[85.8166907,20.2578784],[85.8167186,20.2579394],[85.8167558,20.257983],[85.8168672,20.2581355],[85.8169183,20.2581246],[85.8169903,20.2581006],[85.8171668,20.257996],[85.8173641,20.257874],[85.8176683,20.2576889],[85.8179006,20.2575124],[85.8182094,20.2573076],[85.8185322,20.2571029],[85.819656,20.2563469],[85.8203736,20.2558372],[85.8207962,20.255469],[85.8209936,20.2552991],[85.8210795,20.2552294],[85.8210633,20.2552105]]]}}]}