{"type": "FeatureCollection", "note": "Real OSM tree records (points, tree rows sampled at 40 m, wood/scrub centroids). No fabricated trees.", "features": [{"type": "Feature", "properties": {"kind": "tree", "source": "OSM", "source_file": "trees.geojson"}, "geometry": {"type": "Point", "coordinates": [85.836965, 20.243744]}}, {"type": "Feature", "properties": {"kind": "tree", "source": "OSM", "source_file": "trees.geojson"}, "geometry": {"type": "Point", "coordinates": [85.826461, 20.280403]}}, {"type": "Feature", "properties": {"kind": "tree", "source": "OSM", "source_file": "trees.geojson"}, "geometry": {"type": "Point", "coordinates": [85.826389, 20.280732]}}, {"type": "Feature", "properties": {"kind": "tree", "source": "OSM", "source_file": "trees.geojson"}, "geometry": {"type": "Point", "coordinates": [85.826431, 20.281132]}}, {"type": "Feature", "properties": {"kind": "tree", "source": "OSM", "source_file": "trees.geojson"}, "geometry": {"type": "Point", "coordinates": [85.826862, 20.280864]}}, {"type": "Feature", "properties": {"kind": "tree", "source": "OSM", "source_file": "trees.geojson"}, "geometry": {"type": "Point", "coordinates": [85.826204, 20.281415]}}, {"type": "Feature", "properties": {"kind": "tree", "source": "OSM", "source_file": "trees.geojson"}, "geometry": {"type": "Point", "coordinates": [85.826227, 20.281624]}}, {"type": "Feature", "properties": {"kind": "tree", "source": "OSM", "source_file": "trees.geojson"}, "geometry": {"type": "Point", "coordinates": [85.843445, 20.274726]}}, {"type": "Feature", "properties": {"kind": "tree", "source": "OSM", "source_file": "trees.geojson"}, "geometry": {"type": "Point", "coordinates": [85.843246, 20.274756]}}, {"type": "Feature", "properties": {"kind": "tree", "source": "OSM", "source_file": "trees.geojson"}, "geometry": {"type": "Point", "coordinates": [85.767815, 20.271439]}}, {"type": "Feature", "properties": {"kind": "tree", "source": "OSM", "source_file": "trees.geojson"}, "geometry": {"type": "Point", "coordinates": [85.883781, 20.316512]}}, {"type": "Feature", "properties": {"kind": "tree", "source": "OSM", "source_file": "trees.geojson"}, "geometry": {"type": "Point", "coordinates": [85.823368, 20.290617]}}, {"type": "Feature", "properties": {"kind": "tree", "source": "OSM", "source_file": "trees.geojson"}, "geometry": {"type": "Point", "coordinates": [85.823447, 20.290746]}}, {"type": "Feature", "properties": {"kind": "tree", "source": "OSM", "source_file": "trees.geojson"}, "geometry": {"type": "Point", "coordinates": [85.823636, 20.290773]}}, {"type": "Feature", "properties": {"kind": "tree", "source": "OSM", "source_file": "trees.geojson"}, "geometry": {"type": "Point", "coordinates": [85.823644, 20.290986]}}, {"type": "Feature", "properties": {"kind": "tree", "source": "OSM", "source_file": "trees.geojson"}, "geometry": {"type": "Point", "coordinates": [85.883773, 20.316521]}}, {"type": "Feature", "properties": {"kind": "tree", "source": "OSM", "source_file": "trees.geojson"}, "geometry": {"type": "Point", "coordinates": [85.883791, 20.31652]}}, {"type": "Feature", "properties": {"kind": "tree", "source": "OSM", "source_file": "trees.geojson"}, "geometry": {"type": "Point", "coordinates": [85.883594, 20.316783]}}, {"type": "Feature", "properties": {"kind": "tree", "source": "OSM", "source_file": "trees.geojson"}, "geometry": {"type": "Point", "coordinates": [85.883241, 20.317242]}}, {"type": "Feature", "properties": {"kind": "tree", "source": "OSM", "source_file": "trees.geojson"}, "geometry": {"type": "Point", "coordinates": [85.883311, 20.317263]}}, {"type": "Feature", "properties": {"kind": "tree", "source": "OSM", "source_file": "trees.geojson"}, "geometry": {"type": "Point", "coordinates": [85.883283, 20.317207]}}, {"type": "Feature", "properties": {"kind": "tree", "source": "OSM", "source_file": "trees.geojson"}, "geometry": {"type": "Point", "coordinates": [85.883344, 20.317227]}}, {"type": "Feature", "properties": {"kind": "tree", "source": "OSM", "source_file": "trees.geojson"}, "geometry": {"type": "Point", "coordinates": [85.883191, 20.317298]}}, {"type": "Feature", "properties": {"kind": "tree", "source": "OSM", "source_file": "trees.geojson"}, "geometry": {"type": "Point", "coordinates": [85.883385, 20.31708]}}, {"type": "Feature", "properties": {"kind": "tree", "source": "OSM", "source_file": "trees.geojson"}, "geometry": {"type": "Point", "coordinates": [85.883348, 20.317138]}}, {"type": "Feature", "properties": {"kind": "tree", "source": "OSM", "source_file": "trees.geojson"}, "geometry": {"type": "Point", "coordinates": [85.883385, 20.317181]}}, {"type": "Feature", "properties": {"kind": "tree", "source": "OSM", "source_file": "trees.geojson"}, "geometry": {"type": "Point", "coordinates": [85.881786, 20.319194]}}, {"type": "Feature", "properties": {"kind": "tree", "source": "OSM", "source_file": "trees.geojson"}, "geometry": {"type": "Point", "coordinates": [85.88173, 20.319252]}}, {"type": "Feature", "properties": {"kind": "tree", "source": "OSM", "source_file": "trees.geojson"}, "geometry": {"type": "Point", "coordinates": [85.882392, 20.318398]}}, {"type": "Feature", "properties": {"kind": "tree", "source": "OSM", "source_file": "trees.geojson"}, "geometry": {"type": "Point", "coordinates": [85.882922, 20.317666]}}, {"type": "Feature", "properties": {"kind": "tree", "source": "OSM", "source_file": "trees.geojson"}, "geometry": {"type": "Point", "coordinates": [85.883024, 20.317562]}}, {"type": "Feature", "properties": {"kind": "tree", "source": "OSM", "source_file": "trees.geojson"}, "geometry": {"type": "Point", "coordinates": [85.8818, 20.317615]}}, {"type": "Feature", "properties": {"kind": "tree", "source": "OSM", "source_file": "trees.geojson"}, "geometry": {"type": "Point", "coordinates": [85.881888, 20.317786]}}, {"type": "Feature", "properties": {"kind": "tree", "source": "OSM", "source_file": "trees.geojson"}, "geometry": {"type": "Point", "coordinates": [85.88448, 20.314356]}}, {"type": "Feature", "properties": {"kind": "tree", "source": "OSM", "source_file": "trees.geojson"}, "geometry": {"type": "Point", "coordinates": [85.884088, 20.316111]}}, {"type": "Feature", "properties": {"kind": "tree", "source": "OSM", "source_file": "trees.geojson"}, "geometry": {"type": "Point", "coordinates": [85.884165, 20.315988]}}, {"type": "Feature", "properties": {"kind": "tree_row", "source": "OSM", "source_file": "tree_rows.geojson"}, "geometry": {"type": "Point", "coordinates": [85.817017, 20.253903]}}, {"type": "Feature", "properties": {"kind": "tree_row", "source": "OSM", "source_file": "tree_rows.geojson"}, "geometry": {"type": "Point", "coordinates": [85.817785, 20.254454]}}, {"type": "Feature", "properties": {"kind": "tree_row", "source": "OSM", "source_file": "tree_rows.geojson"}, "geometry": {"type": "Point", "coordinates": [85.817536, 20.256541]}}, {"type": "Feature", "properties": {"kind": "tree_row", "source": "OSM", "source_file": "tree_rows.geojson"}, "geometry": {"type": "Point", "coordinates": [85.817887, 20.2561]}}, {"type": "Feature", "properties": {"kind": "tree_row", "source": "OSM", "source_file": "tree_rows.geojson"}, "geometry": {"type": "Point", "coordinates": [85.818238, 20.255658]}}, {"type": "Feature", "properties": {"kind": "tree_row", "source": "OSM", "source_file": "tree_rows.geojson"}, "geometry": {"type": "Point", "coordinates": [85.818588, 20.255217]}}, {"type": "Feature", "properties": {"kind": "tree_row", "source": "OSM", "source_file": "tree_rows.geojson"}, "geometry": {"type": "Point", "coordinates": [85.817184, 20.256114]}}, {"type": "Feature", "properties": {"kind": "tree_row", "source": "OSM", "source_file": "tree_rows.geojson"}, "geometry": {"type": "Point", "coordinates": [85.817446, 20.255785]}}, {"type": "Feature", "properties": {"kind": "tree_row", "source": "OSM", "source_file": "tree_rows.geojson"}, "geometry": {"type": "Point", "coordinates": [85.817501, 20.255705]}}, {"type": "Feature", "properties": {"kind": "tree_row", "source": "OSM", "source_file": "tree_rows.geojson"}, "geometry": {"type": "Point", "coordinates": [85.817744, 20.255407]}}, {"type": "Feature", "properties": {"kind": "tree_row", "source": "OSM", "source_file": "tree_rows.geojson"}, "geometry": {"type": "Point", "coordinates": [85.817804, 20.255333]}}, {"type": "Feature", "properties": {"kind": "tree_row", "source": "OSM", "source_file": "tree_rows.geojson"}, "geometry": {"type": "Point", "coordinates": [85.818058, 20.254995]}}, {"type": "Feature", "properties": {"kind": "tree_row", "source": "OSM", "source_file": "tree_rows.geojson"}, "geometry": {"type": "Point", "coordinates": [85.817929, 20.254534]}}, {"type": "Feature", "properties": {"kind": "tree_row", "source": "OSM", "source_file": "tree_rows.geojson"}, "geometry": {"type": "Point", "coordinates": [85.818204, 20.254734]}}, {"type": "Feature", "properties": {"kind": "tree_row", "source": "OSM", "source_file": "tree_rows.geojson"}, "geometry": {"type": "Point", "coordinates": [85.815718, 20.255468]}}, {"type": "Feature", "properties": {"kind": "tree_row", "source": "OSM", "source_file": "tree_rows.geojson"}, "geometry": {"type": "Point", "coordinates": [85.816197, 20.255796]}}, {"type": "Feature", "properties": {"kind": "tree_row", "source": "OSM", "source_file": "tree_rows.geojson"}, "geometry": {"type": "Point", "coordinates": [85.816677, 20.256124]}}, {"type": "Feature", "properties": {"kind": "tree_row", "source": "OSM", "source_file": "tree_rows.geojson"}, "geometry": {"type": "Point", "coordinates": [85.817394, 20.256445]}}, {"type": "Feature", "properties": {"kind": "tree_row", "source": "OSM", "source_file": "tree_rows.geojson"}, "geometry": {"type": "Point", "coordinates": [85.817752, 20.255994]}}, {"type": "Feature", "properties": {"kind": "tree_row", "source": "OSM", "source_file": "tree_rows.geojson"}, "geometry": {"type": "Point", "coordinates": [85.81811, 20.255543]}}, {"type": "Feature", "properties": {"kind": "tree_row", "source": "OSM", "source_file": "tree_rows.geojson"}, "geometry": {"type": "Point", "coordinates": [85.818468, 20.255092]}}, {"type": "Feature", "properties": {"kind": "natural_tree", "source": "OSM", "source_file": "all_natural.geojson"}, "geometry": {"type": "Point", "coordinates": [85.836965, 20.243744]}}, {"type": "Feature", "properties": {"kind": "natural_tree", "source": "OSM", "source_file": "all_natural.geojson"}, "geometry": {"type": "Point", "coordinates": [85.826461, 20.280403]}}, {"type": "Feature", "properties": {"kind": "natural_tree", "source": "OSM", "source_file": "all_natural.geojson"}, "geometry": {"type": "Point", "coordinates": [85.826389, 20.280732]}}, {"type": "Feature", "properties": {"kind": "natural_tree", "source": "OSM", "source_file": "all_natural.geojson"}, "geometry": {"type": "Point", "coordinates": [85.826431, 20.281132]}}, {"type": "Feature", "properties": {"kind": "natural_tree", "source": "OSM", "source_file": "all_natural.geojson"}, "geometry": {"type": "Point", "coordinates": [85.826862, 20.280864]}}, {"type": "Feature", "properties": {"kind": "natural_tree", "source": "OSM", "source_file": "all_natural.geojson"}, "geometry": {"type": "Point", "coordinates": [85.826204, 20.281415]}}, {"type": "Feature", "properties": {"kind": "natural_tree", "source": "OSM", "source_file": "all_natural.geojson"}, "geometry": {"type": "Point", "coordinates": [85.826227, 20.281624]}}, {"type": "Feature", "properties": {"kind": "natural_tree", "source": "OSM", "source_file": "all_natural.geojson"}, "geometry": {"type": "Point", "coordinates": [85.843445, 20.274726]}}, {"type": "Feature", "properties": {"kind": "natural_tree", "source": "OSM", "source_file": "all_natural.geojson"}, "geometry": {"type": "Point", "coordinates": [85.843246, 20.274756]}}, {"type": "Feature", "properties": {"kind": "natural_tree", "source": "OSM", "source_file": "all_natural.geojson"}, "geometry": {"type": "Point", "coordinates": [85.767815, 20.271439]}}, {"type": "Feature", "properties": {"kind": "natural_tree", "source": "OSM", "source_file": "all_natural.geojson"}, "geometry": {"type": "Point", "coordinates": [85.883781, 20.316512]}}, {"type": "Feature", "properties": {"kind": "natural_tree", "source": "OSM", "source_file": "all_natural.geojson"}, "geometry": {"type": "Point", "coordinates": [85.823368, 20.290617]}}, {"type": "Feature", "properties": {"kind": "natural_tree", "source": "OSM", "source_file": "all_natural.geojson"}, "geometry": {"type": "Point", "coordinates": [85.823447, 20.290746]}}, {"type": "Feature", "properties": {"kind": "natural_tree", "source": "OSM", "source_file": "all_natural.geojson"}, "geometry": {"type": "Point", "coordinates": [85.823636, 20.290773]}}, {"type": "Feature", "properties": {"kind": "natural_tree", "source": "OSM", "source_file": "all_natural.geojson"}, "geometry": {"type": "Point", "coordinates": [85.823644, 20.290986]}}, {"type": "Feature", "properties": {"kind": "natural_tree", "source": "OSM", "source_file": "all_natural.geojson"}, "geometry": {"type": "Point", "coordinates": [85.883773, 20.316521]}}, {"type": "Feature", "properties": {"kind": "natural_tree", "source": "OSM", "source_file": "all_natural.geojson"}, "geometry": {"type": "Point", "coordinates": [85.883791, 20.31652]}}, {"type": "Feature", "properties": {"kind": "natural_tree", "source": "OSM", "source_file": "all_natural.geojson"}, "geometry": {"type": "Point", "coordinates": [85.883594, 20.316783]}}, {"type": "Feature", "properties": {"kind": "natural_tree", "source": "OSM", "source_file": "all_natural.geojson"}, "geometry": {"type": "Point", "coordinates": [85.883241, 20.317242]}}, {"type": "Feature", "properties": {"kind": "natural_tree", "source": "OSM", "source_file": "all_natural.geojson"}, "geometry": {"type": "Point", "coordinates": [85.883311, 20.317263]}}, {"type": "Feature", "properties": {"kind": "natural_tree", "source": "OSM", "source_file": "all_natural.geojson"}, "geometry": {"type": "Point", "coordinates": [85.883283, 20.317207]}}, {"type": "Feature", "properties": {"kind": "natural_tree", "source": "OSM", "source_file": "all_natural.geojson"}, "geometry": {"type": "Point", "coordinates": [85.883344, 20.317227]}}, {"type": "Feature", "properties": {"kind": "natural_tree", "source": "OSM", "source_file": "all_natural.geojson"}, "geometry": {"type": "Point", "coordinates": [85.883191, 20.317298]}}, {"type": "Feature", "properties": {"kind": "natural_tree", "source": "OSM", "source_file": "all_natural.geojson"}, "geometry": {"type": "Point", "coordinates": [85.883385, 20.31708]}}, {"type": "Feature", "properties": {"kind": "natural_tree", "source": "OSM", "source_file": "all_natural.geojson"}, "geometry": {"type": "Point", "coordinates": [85.883348, 20.317138]}}, {"type": "Feature", "properties": {"kind": "natural_tree", "source": "OSM", "source_file": "all_natural.geojson"}, "geometry": {"type": "Point", "coordinates": [85.883385, 20.317181]}}, {"type": "Feature", "properties": {"kind": "natural_tree", "source": "OSM", "source_file": "all_natural.geojson"}, "geometry": {"type": "Point", "coordinates": [85.881786, 20.319194]}}, {"type": "Feature", "properties": {"kind": "natural_tree", "source": "OSM", "source_file": "all_natural.geojson"}, "geometry": {"type": "Point", "coordinates": [85.88173, 20.319252]}}, {"type": "Feature", "properties": {"kind": "natural_tree", "source": "OSM", "source_file": "all_natural.geojson"}, "geometry": {"type": "Point", "coordinates": [85.882392, 20.318398]}}, {"type": "Feature", "properties": {"kind": "natural_tree", "source": "OSM", "source_file": "all_natural.geojson"}, "geometry": {"type": "Point", "coordinates": [85.882922, 20.317666]}}, {"type": "Feature", "properties": {"kind": "natural_tree", "source": "OSM", "source_file": "all_natural.geojson"}, "geometry": {"type": "Point", "coordinates": [85.883024, 20.317562]}}, {"type": "Feature", "properties": {"kind": "natural_tree", "source": "OSM", "source_file": "all_natural.geojson"}, "geometry": {"type": "Point", "coordinates": [85.8818, 20.317615]}}, {"type": "Feature", "properties": {"kind": "natural_tree", "source": "OSM", "source_file": "all_natural.geojson"}, "geometry": {"type": "Point", "coordinates": [85.881888, 20.317786]}}, {"type": "Feature", "properties": {"kind": "natural_tree", "source": "OSM", "source_file": "all_natural.geojson"}, "geometry": {"type": "Point", "coordinates": [85.88448, 20.314356]}}, {"type": "Feature", "properties": {"kind": "natural_tree", "source": "OSM", "source_file": "all_natural.geojson"}, "geometry": {"type": "Point", "coordinates": [85.884088, 20.316111]}}, {"type": "Feature", "properties": {"kind": "natural_tree", "source": "OSM", "source_file": "all_natural.geojson"}, "geometry": {"type": "Point", "coordinates": [85.884165, 20.315988]}}, {"type": "Feature", "properties": {"kind": "natural_scrub", "source": "OSM", "source_file": "all_natural.geojson"}, "geometry": {"type": "Point", "coordinates": [85.809939, 20.283471]}}, {"type": "Feature", "properties": {"kind": "natural_wood", "source": "OSM", "source_file": "all_natural.geojson"}, "geometry": {"type": "Point", "coordinates": [85.818774, 20.284498]}}]}